{"type":"FeatureCollection","features":[{"type":"Feature","properties":{"NAME_1":"Daman and Diu","NAME_2":"Daman"},"geometry":{"type":"Polygon","coordinates":[[[72.822,20.371],[72.822,20.371],[72.821,20.371],[72.821,20.372],[72.822,20.372],[72.822,20.373],[72.822,20.373],[72.822,20.374],[72.822,20.374],[72.822,20.374],[72.822,20.374],[72.822,20.375],[72.823,20.375],[72.823,20.375],[72.823,20.375],[72.823,20.376],[72.823,20.376],[72.823,20.377],[72.823,20.377],[72.823,20.378],[72.824,20.378],[72.824,20.379],[72.824,20.379],[72.824,20.38],[72.824,20.38],[72.824,20.38],[72.825,20.38],[72.825,20.381],[72.825,20.381],[72.825,20.382],[72.825,20.382],[72.825,20.383],[72.825,20.383],[72.825,20.383],[72.826,20.383],[72.826,20.384],[72.826,20.384],[72.826,20.385],[72.826,20.385],[72.826,20.385],[72.827,20.385],[72.827,20.386],[72.827,20.386],[72.827,20.387],[72.827,20.387],[72.827,20.387],[72.828,20.387],[72.828,20.388],[72.828,20.388],[72.828,20.388],[72.828,20.388],[72.828,20.389],[72.827,20.389],[72.827,20.39],[72.828,20.39],[72.828,20.391],[72.828,20.391],[72.828,20.392],[72.828,20.392],[72.828,20.395],[72.828,20.395],[72.828,20.4],[72.829,20.4],[72.829,20.403],[72.828,20.403],[72.828,20.405],[72.829,20.405],[72.829,20.406],[72.829,20.406],[72.829,20.407],[72.829,20.407],[72.829,20.408],[72.83,20.408],[72.83,20.408],[72.83,20.408],[72.83,20.409],[72.83,20.409],[72.83,20.41],[72.83,20.41],[72.83,20.41],[72.831,20.41],[72.831,20.41],[72.831,20.41],[72.831,20.41],[72.831,20.41],[72.831,20.411],[72.831,20.413],[72.831,20.413],[72.831,20.413],[72.83,20.413],[72.83,20.413],[72.83,20.413],[72.83,20.414],[72.83,20.414],[72.83,20.414],[72.83,20.414],[72.83,20.415],[72.829,20.415],[72.829,20.421],[72.829,20.421],[72.829,20.426],[72.829,20.426],[72.829,20.43],[72.828,20.43],[72.828,20.43],[72.828,20.43],[72.828,20.432],[72.828,20.432],[72.828,20.434],[72.829,20.434],[72.829,20.434],[72.829,20.434],[72.829,20.435],[72.829,20.435],[72.829,20.436],[72.83,20.436],[72.83,20.437],[72.83,20.437],[72.83,20.439],[72.83,20.439],[72.83,20.44],[72.83,20.44],[72.83,20.44],[72.831,20.44],[72.831,20.441],[72.831,20.441],[72.831,20.442],[72.831,20.442],[72.831,20.442],[72.832,20.442],[72.832,20.443],[72.832,20.443],[72.832,20.443],[72.832,20.443],[72.832,20.444],[72.832,20.444],[72.832,20.445],[72.833,20.445],[72.833,20.446],[72.833,20.446],[72.833,20.446],[72.833,20.446],[72.833,20.447],[72.834,20.447],[72.834,20.447],[72.834,20.447],[72.834,20.447],[72.835,20.447],[72.835,20.448],[72.835,20.448],[72.835,20.448],[72.835,20.448],[72.835,20.449],[72.835,20.449],[72.835,20.449],[72.836,20.449],[72.836,20.45],[72.836,20.45],[72.836,20.45],[72.836,20.45],[72.836,20.45],[72.837,20.45],[72.837,20.451],[72.837,20.451],[72.837,20.452],[72.837,20.452],[72.837,20.452],[72.837,20.452],[72.837,20.452],[72.838,20.452],[72.838,20.453],[72.838,20.453],[72.838,20.453],[72.838,20.453],[72.838,20.453],[72.838,20.453],[72.838,20.454],[72.839,20.454],[72.839,20.454],[72.839,20.454],[72.839,20.454],[72.84,20.454],[72.84,20.455],[72.84,20.455],[72.84,20.455],[72.84,20.455],[72.84,20.455],[72.841,20.455],[72.841,20.456],[72.841,20.456],[72.841,20.456],[72.841,20.456],[72.841,20.456],[72.842,20.456],[72.842,20.456],[72.842,20.457],[72.842,20.457],[72.842,20.457],[72.842,20.457],[72.842,20.457],[72.842,20.457],[72.842,20.457],[72.842,20.457],[72.842,20.457],[72.842,20.457],[72.843,20.457],[72.843,20.458],[72.843,20.458],[72.843,20.458],[72.843,20.458],[72.843,20.458],[72.843,20.458],[72.843,20.458],[72.844,20.458],[72.844,20.459],[72.844,20.459],[72.844,20.459],[72.845,20.459],[72.845,20.46],[72.845,20.46],[72.845,20.46],[72.846,20.46],[72.846,20.46],[72.846,20.46],[72.846,20.46],[72.847,20.46],[72.847,20.46],[72.848,20.46],[72.848,20.461],[72.848,20.461],[72.848,20.461],[72.848,20.461],[72.848,20.461],[72.849,20.461],[72.849,20.462],[72.849,20.462],[72.849,20.462],[72.85,20.462],[72.85,20.462],[72.85,20.462],[72.85,20.463],[72.85,20.463],[72.85,20.463],[72.851,20.463],[72.851,20.463],[72.852,20.463],[72.852,20.463],[72.852,20.463],[72.852,20.463],[72.852,20.463],[72.852,20.463],[72.853,20.463],[72.853,20.464],[72.853,20.464],[72.853,20.464],[72.853,20.464],[72.853,20.465],[72.854,20.465],[72.854,20.465],[72.854,20.465],[72.854,20.465],[72.854,20.465],[72.854,20.466],[72.855,20.466],[72.855,20.466],[72.856,20.466],[72.856,20.466],[72.856,20.466],[72.856,20.465],[72.857,20.465],[72.857,20.465],[72.857,20.465],[72.857,20.465],[72.859,20.465],[72.859,20.465],[72.859,20.465],[72.859,20.465],[72.859,20.465],[72.859,20.465],[72.859,20.465],[72.859,20.466],[72.859,20.466],[72.859,20.466],[72.858,20.466],[72.858,20.467],[72.859,20.467],[72.859,20.467],[72.859,20.467],[72.859,20.468],[72.859,20.468],[72.859,20.468],[72.86,20.468],[72.86,20.469],[72.86,20.469],[72.86,20.47],[72.86,20.47],[72.86,20.471],[72.863,20.469],[72.866,20.468],[72.862,20.462],[72.851,20.455],[72.849,20.453],[72.844,20.448],[72.842,20.445],[72.839,20.439],[72.839,20.438],[72.838,20.437],[72.837,20.428],[72.837,20.422],[72.839,20.418],[72.841,20.418],[72.842,20.417],[72.843,20.416],[72.844,20.416],[72.845,20.415],[72.846,20.415],[72.851,20.412],[72.852,20.412],[72.862,20.41],[72.869,20.406],[72.869,20.404],[72.87,20.402],[72.873,20.396],[72.874,20.393],[72.876,20.381],[72.873,20.382],[72.872,20.382],[72.87,20.391],[72.861,20.403],[72.851,20.408],[72.845,20.407],[72.843,20.403],[72.843,20.399],[72.832,20.371],[72.831,20.369],[72.822,20.371]]]}},{"type":"Feature","properties":{"NAME_1":"Daman and Diu","NAME_2":"Junagadh"},"geometry":{"type":"MultiPolygon","coordinates":[[[[70.889,20.71],[70.889,20.709],[70.888,20.709],[70.888,20.709],[70.886,20.709],[70.886,20.71],[70.885,20.71],[70.885,20.709],[70.884,20.709],[70.884,20.71],[70.881,20.71],[70.881,20.709],[70.877,20.709],[70.877,20.709],[70.875,20.709],[70.875,20.709],[70.874,20.709],[70.874,20.71],[70.874,20.71],[70.874,20.71],[70.884,20.714],[70.888,20.711],[70.889,20.71]]],[[[70.949,20.734],[70.962,20.729],[70.963,20.729],[70.963,20.729],[70.962,20.729],[70.962,20.728],[70.962,20.728],[70.962,20.728],[70.962,20.728],[70.962,20.727],[70.962,20.727],[70.962,20.726],[70.961,20.726],[70.961,20.723],[70.962,20.723],[70.962,20.723],[70.962,20.723],[70.962,20.722],[70.962,20.722],[70.962,20.722],[70.962,20.722],[70.962,20.722],[70.963,20.722],[70.963,20.722],[70.963,20.722],[70.963,20.722],[70.964,20.722],[70.964,20.722],[70.964,20.722],[70.964,20.722],[70.965,20.722],[70.965,20.722],[70.965,20.722],[70.965,20.723],[70.963,20.723],[70.963,20.723],[70.963,20.723],[70.963,20.723],[70.963,20.723],[70.963,20.725],[70.963,20.725],[70.963,20.726],[70.963,20.726],[70.963,20.726],[70.963,20.726],[70.963,20.727],[70.964,20.727],[70.964,20.727],[70.964,20.727],[70.964,20.727],[70.964,20.727],[70.964,20.727],[70.965,20.727],[70.965,20.728],[70.965,20.728],[70.965,20.728],[70.965,20.728],[70.965,20.728],[70.965,20.728],[70.965,20.728],[70.968,20.728],[70.968,20.728],[70.968,20.728],[70.968,20.728],[70.969,20.728],[70.969,20.728],[70.971,20.728],[70.971,20.727],[70.972,20.727],[70.972,20.727],[70.972,20.727],[70.972,20.727],[70.973,20.727],[70.973,20.726],[70.974,20.726],[70.974,20.726],[70.975,20.726],[70.975,20.726],[70.975,20.726],[70.975,20.725],[70.976,20.725],[70.976,20.725],[70.976,20.725],[70.976,20.725],[70.976,20.725],[70.976,20.724],[70.977,20.724],[70.977,20.724],[70.977,20.724],[70.977,20.724],[70.977,20.724],[70.977,20.723],[70.977,20.723],[70.977,20.723],[70.978,20.723],[70.978,20.723],[70.978,20.723],[70.978,20.722],[70.978,20.722],[70.978,20.722],[70.979,20.722],[70.979,20.722],[70.979,20.722],[70.979,20.722],[70.979,20.722],[70.979,20.721],[70.98,20.721],[70.98,20.721],[70.98,20.721],[70.98,20.72],[70.982,20.72],[70.982,20.72],[70.982,20.72],[70.982,20.72],[70.983,20.72],[70.983,20.72],[70.986,20.72],[70.986,20.72],[70.986,20.72],[70.986,20.72],[70.987,20.72],[70.987,20.719],[70.988,20.719],[70.988,20.719],[70.99,20.719],[70.99,20.719],[70.99,20.719],[70.99,20.718],[70.991,20.718],[70.991,20.718],[70.991,20.718],[70.991,20.718],[70.991,20.718],[70.991,20.717],[70.992,20.717],[70.992,20.717],[70.992,20.717],[70.992,20.717],[70.993,20.717],[70.993,20.717],[70.994,20.717],[70.994,20.716],[70.997,20.716],[70.997,20.716],[70.997,20.716],[70.997,20.716],[70.998,20.716],[70.998,20.714],[70.998,20.714],[70.997,20.714],[70.997,20.713],[70.997,20.713],[70.997,20.713],[70.997,20.713],[70.997,20.713],[70.996,20.713],[70.996,20.712],[70.996,20.712],[70.996,20.712],[70.995,20.712],[70.995,20.712],[70.995,20.712],[70.995,20.711],[70.995,20.711],[70.995,20.711],[70.994,20.711],[70.994,20.711],[70.993,20.711],[70.993,20.71],[70.993,20.71],[70.993,20.71],[70.992,20.71],[70.992,20.71],[70.99,20.71],[70.99,20.709],[70.99,20.709],[70.99,20.709],[70.99,20.709],[70.99,20.709],[70.99,20.709],[70.99,20.708],[70.989,20.708],[70.989,20.709],[70.989,20.709],[70.989,20.709],[70.988,20.709],[70.988,20.709],[70.988,20.709],[70.988,20.71],[70.987,20.71],[70.987,20.709],[70.986,20.709],[70.986,20.709],[70.985,20.709],[70.985,20.708],[70.985,20.708],[70.985,20.708],[70.985,20.708],[70.985,20.708],[70.983,20.708],[70.983,20.707],[70.982,20.707],[70.982,20.707],[70.982,20.707],[70.982,20.707],[70.981,20.707],[70.981,20.707],[70.98,20.707],[70.98,20.706],[70.98,20.706],[70.98,20.706],[70.979,20.706],[70.979,20.706],[70.979,20.706],[70.979,20.705],[70.979,20.705],[70.979,20.705],[70.978,20.705],[70.978,20.704],[70.978,20.704],[70.978,20.704],[70.978,20.704],[70.978,20.704],[70.978,20.704],[70.978,20.703],[70.977,20.703],[70.977,20.702],[70.977,20.702],[70.977,20.702],[70.977,20.702],[70.976,20.702],[70.976,20.702],[70.976,20.702],[70.976,20.702],[70.976,20.702],[70.976,20.702],[70.976,20.703],[70.976,20.703],[70.976,20.703],[70.976,20.703],[70.976,20.704],[70.974,20.704],[70.974,20.704],[70.973,20.704],[70.973,20.704],[70.973,20.704],[70.973,20.705],[70.972,20.705],[70.972,20.704],[70.972,20.704],[70.972,20.704],[70.972,20.704],[70.972,20.704],[70.971,20.704],[70.971,20.705],[70.97,20.705],[70.97,20.705],[70.97,20.705],[70.97,20.705],[70.97,20.705],[70.97,20.706],[70.97,20.706],[70.97,20.707],[70.97,20.707],[70.97,20.707],[70.967,20.707],[70.967,20.707],[70.967,20.707],[70.967,20.707],[70.966,20.707],[70.966,20.706],[70.966,20.706],[70.966,20.706],[70.966,20.706],[70.966,20.706],[70.965,20.706],[70.965,20.705],[70.964,20.705],[70.964,20.706],[70.962,20.706],[70.962,20.706],[70.962,20.706],[70.962,20.707],[70.96,20.707],[70.96,20.707],[70.96,20.707],[70.96,20.706],[70.96,20.706],[70.96,20.706],[70.959,20.706],[70.959,20.706],[70.958,20.706],[70.958,20.705],[70.958,20.705],[70.958,20.705],[70.958,20.705],[70.957,20.705],[70.957,20.705],[70.957,20.705],[70.957,20.705],[70.956,20.705],[70.956,20.704],[70.956,20.704],[70.956,20.704],[70.955,20.704],[70.955,20.704],[70.952,20.704],[70.952,20.704],[70.951,20.704],[70.951,20.704],[70.95,20.704],[70.95,20.705],[70.95,20.705],[70.95,20.705],[70.949,20.705],[70.949,20.705],[70.948,20.705],[70.948,20.705],[70.946,20.705],[70.946,20.706],[70.944,20.706],[70.944,20.706],[70.943,20.706],[70.943,20.706],[70.942,20.706],[70.942,20.707],[70.942,20.707],[70.942,20.707],[70.941,20.707],[70.941,20.707],[70.939,20.707],[70.939,20.707],[70.939,20.707],[70.939,20.708],[70.939,20.708],[70.939,20.708],[70.938,20.708],[70.938,20.708],[70.938,20.708],[70.938,20.709],[70.938,20.709],[70.938,20.709],[70.937,20.709],[70.937,20.71],[70.937,20.71],[70.937,20.71],[70.937,20.71],[70.937,20.71],[70.936,20.71],[70.936,20.71],[70.935,20.71],[70.935,20.711],[70.935,20.711],[70.935,20.711],[70.933,20.711],[70.933,20.711],[70.932,20.711],[70.932,20.712],[70.929,20.712],[70.929,20.712],[70.925,20.712],[70.925,20.712],[70.923,20.712],[70.923,20.711],[70.923,20.711],[70.923,20.711],[70.922,20.711],[70.922,20.711],[70.92,20.711],[70.92,20.71],[70.919,20.71],[70.919,20.71],[70.919,20.71],[70.919,20.71],[70.918,20.71],[70.918,20.71],[70.918,20.71],[70.918,20.709],[70.917,20.709],[70.917,20.709],[70.917,20.709],[70.917,20.708],[70.917,20.708],[70.917,20.708],[70.916,20.708],[70.916,20.708],[70.916,20.708],[70.916,20.707],[70.916,20.707],[70.916,20.706],[70.915,20.706],[70.915,20.705],[70.916,20.705],[70.916,20.703],[70.916,20.703],[70.916,20.703],[70.916,20.703],[70.916,20.702],[70.918,20.702],[70.918,20.702],[70.918,20.702],[70.918,20.702],[70.917,20.702],[70.917,20.701],[70.917,20.701],[70.917,20.701],[70.916,20.701],[70.916,20.701],[70.915,20.701],[70.915,20.7],[70.915,20.7],[70.915,20.7],[70.915,20.7],[70.915,20.7],[70.914,20.7],[70.914,20.7],[70.914,20.7],[70.914,20.699],[70.913,20.699],[70.913,20.699],[70.912,20.699],[70.912,20.7],[70.912,20.7],[70.912,20.702],[70.912,20.702],[70.911,20.702],[70.91,20.702],[70.91,20.702],[70.91,20.702],[70.91,20.701],[70.909,20.701],[70.909,20.701],[70.908,20.701],[70.908,20.7],[70.907,20.7],[70.907,20.701],[70.906,20.701],[70.906,20.7],[70.905,20.7],[70.905,20.7],[70.903,20.7],[70.903,20.7],[70.903,20.7],[70.903,20.7],[70.902,20.7],[70.902,20.699],[70.901,20.699],[70.901,20.699],[70.9,20.699],[70.9,20.699],[70.899,20.699],[70.899,20.699],[70.899,20.699],[70.899,20.699],[70.899,20.699],[70.899,20.7],[70.898,20.7],[70.898,20.7],[70.898,20.7],[70.898,20.7],[70.897,20.7],[70.897,20.7],[70.897,20.7],[70.897,20.701],[70.897,20.701],[70.897,20.701],[70.898,20.701],[70.898,20.702],[70.898,20.702],[70.898,20.704],[70.898,20.704],[70.898,20.704],[70.897,20.704],[70.897,20.705],[70.897,20.705],[70.897,20.705],[70.896,20.705],[70.896,20.706],[70.896,20.706],[70.896,20.706],[70.896,20.706],[70.895,20.706],[70.895,20.706],[70.895,20.706],[70.895,20.707],[70.895,20.707],[70.895,20.707],[70.895,20.707],[70.895,20.707],[70.894,20.707],[70.894,20.707],[70.894,20.707],[70.894,20.708],[70.893,20.708],[70.893,20.708],[70.892,20.708],[70.892,20.708],[70.893,20.713],[70.897,20.72],[70.9,20.724],[70.905,20.727],[70.921,20.729],[70.93,20.732],[70.934,20.736],[70.939,20.736],[70.949,20.734]]],[[[70.768,20.962],[70.771,20.961],[70.773,20.961],[70.777,20.969],[70.779,20.967],[70.784,20.962],[70.789,20.96],[70.794,20.959],[70.803,20.96],[70.808,20.964],[70.817,20.96],[70.822,20.96],[70.825,20.96],[70.828,20.965],[70.833,20.969],[70.838,20.97],[70.846,20.971],[70.849,20.967],[70.851,20.963],[70.855,20.961],[70.862,20.961],[70.869,20.957],[70.88,20.955],[70.887,20.945],[70.89,20.936],[70.892,20.93],[70.902,20.903],[70.903,20.897],[70.9,20.886],[70.897,20.882],[70.884,20.873],[70.875,20.869],[70.865,20.865],[70.846,20.861],[70.841,20.858],[70.826,20.859],[70.82,20.858],[70.817,20.851],[70.82,20.849],[70.829,20.849],[70.836,20.848],[70.838,20.844],[70.838,20.837],[70.842,20.832],[70.85,20.832],[70.873,20.835],[70.883,20.835],[70.891,20.833],[70.896,20.825],[70.897,20.816],[70.896,20.804],[70.894,20.795],[70.883,20.793],[70.876,20.789],[70.867,20.795],[70.865,20.79],[70.863,20.782],[70.864,20.774],[70.867,20.769],[70.867,20.765],[70.864,20.764],[70.849,20.766],[70.846,20.765],[70.845,20.764],[70.844,20.76],[70.854,20.754],[70.854,20.753],[70.854,20.753],[70.854,20.754],[70.853,20.754],[70.853,20.754],[70.853,20.754],[70.853,20.753],[70.853,20.753],[70.853,20.753],[70.853,20.753],[70.853,20.753],[70.854,20.753],[70.854,20.752],[70.854,20.752],[70.854,20.752],[70.855,20.752],[70.855,20.751],[70.854,20.75],[70.851,20.745],[70.84,20.73],[70.84,20.728],[70.845,20.726],[70.845,20.725],[70.845,20.724],[70.847,20.723],[70.85,20.724],[70.855,20.725],[70.859,20.724],[70.862,20.724],[70.862,20.725],[70.862,20.726],[70.865,20.727],[70.866,20.726],[70.867,20.722],[70.87,20.719],[70.87,20.715],[70.87,20.715],[70.87,20.715],[70.869,20.715],[70.869,20.715],[70.869,20.715],[70.869,20.714],[70.868,20.714],[70.868,20.714],[70.868,20.714],[70.868,20.713],[70.868,20.713],[70.868,20.713],[70.868,20.713],[70.868,20.712],[70.869,20.712],[70.869,20.711],[70.869,20.711],[70.869,20.711],[70.869,20.711],[70.869,20.709],[70.869,20.709],[70.869,20.707],[70.869,20.707],[70.869,20.706],[70.869,20.706],[70.869,20.706],[70.872,20.706],[70.872,20.706],[70.874,20.706],[70.874,20.705],[70.874,20.705],[70.874,20.705],[70.874,20.705],[70.874,20.705],[70.874,20.705],[70.873,20.705],[70.873,20.704],[70.873,20.704],[70.873,20.704],[70.87,20.704],[70.87,20.704],[70.868,20.704],[70.868,20.704],[70.867,20.704],[70.867,20.704],[70.867,20.704],[70.867,20.705],[70.866,20.705],[70.866,20.705],[70.865,20.705],[70.865,20.705],[70.865,20.705],[70.865,20.705],[70.864,20.705],[70.864,20.706],[70.862,20.706],[70.862,20.706],[70.859,20.706],[70.859,20.706],[70.858,20.706],[70.858,20.707],[70.857,20.707],[70.857,20.707],[70.857,20.707],[70.857,20.707],[70.857,20.707],[70.857,20.708],[70.856,20.708],[70.856,20.708],[70.855,20.708],[70.855,20.708],[70.851,20.708],[70.851,20.708],[70.85,20.708],[70.85,20.708],[70.847,20.708],[70.847,20.707],[70.845,20.707],[70.845,20.707],[70.845,20.707],[70.845,20.707],[70.843,20.707],[70.843,20.707],[70.843,20.707],[70.843,20.706],[70.842,20.706],[70.842,20.706],[70.841,20.706],[70.841,20.706],[70.841,20.706],[70.841,20.705],[70.84,20.705],[70.84,20.705],[70.84,20.705],[70.84,20.705],[70.839,20.705],[70.839,20.705],[70.839,20.705],[70.839,20.704],[70.838,20.704],[70.838,20.704],[70.838,20.704],[70.838,20.704],[70.838,20.704],[70.838,20.703],[70.838,20.703],[70.838,20.703],[70.837,20.703],[70.837,20.703],[70.837,20.703],[70.837,20.703],[70.836,20.703],[70.836,20.702],[70.836,20.702],[70.836,20.702],[70.836,20.702],[70.836,20.701],[70.835,20.701],[70.835,20.701],[70.835,20.701],[70.835,20.701],[70.835,20.701],[70.835,20.7],[70.835,20.7],[70.835,20.7],[70.834,20.7],[70.834,20.699],[70.834,20.699],[70.834,20.699],[70.834,20.699],[70.834,20.698],[70.835,20.698],[70.835,20.697],[70.835,20.697],[70.835,20.697],[70.835,20.696],[70.835,20.696],[70.835,20.695],[70.836,20.695],[70.836,20.694],[70.836,20.694],[70.836,20.693],[70.837,20.693],[70.837,20.693],[70.838,20.693],[70.838,20.693],[70.838,20.693],[70.838,20.692],[70.838,20.692],[70.838,20.69],[70.838,20.69],[70.838,20.69],[70.837,20.69],[70.837,20.69],[70.837,20.69],[70.836,20.69],[70.836,20.69],[70.836,20.69],[70.836,20.69],[70.836,20.69],[70.836,20.691],[70.835,20.691],[70.835,20.691],[70.833,20.691],[70.833,20.691],[70.832,20.691],[70.832,20.691],[70.83,20.691],[70.83,20.691],[70.83,20.691],[70.83,20.69],[70.829,20.69],[70.829,20.69],[70.828,20.69],[70.828,20.69],[70.826,20.69],[70.826,20.691],[70.825,20.691],[70.825,20.691],[70.825,20.691],[70.825,20.691],[70.824,20.691],[70.824,20.691],[70.822,20.691],[70.822,20.691],[70.822,20.691],[70.822,20.692],[70.822,20.692],[70.822,20.692],[70.822,20.692],[70.822,20.693],[70.822,20.693],[70.822,20.694],[70.82,20.694],[70.82,20.694],[70.82,20.694],[70.82,20.694],[70.819,20.694],[70.819,20.694],[70.819,20.694],[70.819,20.694],[70.818,20.694],[70.818,20.695],[70.818,20.695],[70.818,20.695],[70.818,20.695],[70.818,20.695],[70.817,20.695],[70.817,20.695],[70.817,20.695],[70.817,20.696],[70.817,20.696],[70.817,20.697],[70.817,20.697],[70.817,20.697],[70.816,20.697],[70.816,20.697],[70.815,20.697],[70.815,20.697],[70.815,20.697],[70.815,20.698],[70.815,20.698],[70.815,20.698],[70.814,20.698],[70.814,20.698],[70.814,20.698],[70.814,20.698],[70.814,20.698],[70.814,20.699],[70.813,20.699],[70.813,20.699],[70.813,20.699],[70.813,20.699],[70.812,20.699],[70.812,20.7],[70.812,20.7],[70.812,20.7],[70.811,20.7],[70.811,20.7],[70.809,20.7],[70.809,20.7],[70.809,20.7],[70.809,20.7],[70.808,20.7],[70.808,20.7],[70.808,20.7],[70.808,20.7],[70.807,20.7],[70.807,20.701],[70.808,20.701],[70.808,20.701],[70.81,20.701],[70.81,20.701],[70.811,20.701],[70.811,20.702],[70.811,20.702],[70.811,20.701],[70.812,20.701],[70.812,20.702],[70.815,20.702],[70.815,20.702],[70.815,20.702],[70.816,20.702],[70.816,20.702],[70.817,20.702],[70.817,20.702],[70.82,20.702],[70.82,20.702],[70.82,20.702],[70.82,20.701],[70.821,20.701],[70.821,20.7],[70.82,20.7],[70.82,20.7],[70.82,20.7],[70.82,20.699],[70.82,20.699],[70.82,20.699],[70.819,20.699],[70.819,20.698],[70.82,20.698],[70.82,20.698],[70.824,20.698],[70.824,20.698],[70.825,20.698],[70.825,20.698],[70.825,20.698],[70.825,20.698],[70.826,20.698],[70.826,20.697],[70.827,20.697],[70.827,20.698],[70.828,20.698],[70.828,20.699],[70.827,20.699],[70.827,20.702],[70.827,20.702],[70.827,20.702],[70.828,20.702],[70.828,20.703],[70.828,20.703],[70.828,20.704],[70.828,20.704],[70.828,20.707],[70.828,20.707],[70.828,20.708],[70.829,20.708],[70.829,20.709],[70.828,20.709],[70.828,20.71],[70.828,20.71],[70.828,20.71],[70.828,20.71],[70.828,20.71],[70.828,20.71],[70.828,20.711],[70.828,20.711],[70.828,20.711],[70.827,20.711],[70.827,20.712],[70.827,20.712],[70.827,20.712],[70.827,20.712],[70.827,20.712],[70.824,20.712],[70.824,20.713],[70.824,20.713],[70.824,20.713],[70.823,20.713],[70.823,20.713],[70.821,20.713],[70.821,20.713],[70.82,20.713],[70.82,20.714],[70.82,20.714],[70.82,20.714],[70.819,20.714],[70.819,20.714],[70.818,20.714],[70.818,20.715],[70.817,20.715],[70.817,20.715],[70.815,20.715],[70.815,20.715],[70.815,20.715],[70.815,20.715],[70.815,20.715],[70.815,20.716],[70.816,20.716],[70.816,20.716],[70.816,20.716],[70.816,20.717],[70.816,20.717],[70.816,20.717],[70.817,20.717],[70.817,20.717],[70.817,20.717],[70.817,20.718],[70.817,20.718],[70.817,20.719],[70.816,20.719],[70.816,20.719],[70.815,20.719],[70.815,20.719],[70.814,20.719],[70.814,20.719],[70.813,20.719],[70.813,20.718],[70.813,20.718],[70.813,20.718],[70.813,20.718],[70.813,20.718],[70.813,20.718],[70.813,20.718],[70.813,20.717],[70.813,20.717],[70.813,20.716],[70.813,20.716],[70.813,20.716],[70.813,20.716],[70.813,20.715],[70.813,20.715],[70.813,20.715],[70.811,20.715],[70.811,20.715],[70.811,20.715],[70.811,20.714],[70.81,20.714],[70.81,20.714],[70.81,20.714],[70.81,20.712],[70.81,20.712],[70.81,20.711],[70.81,20.711],[70.81,20.711],[70.809,20.711],[70.809,20.71],[70.809,20.71],[70.809,20.71],[70.809,20.71],[70.809,20.71],[70.808,20.71],[70.808,20.711],[70.807,20.711],[70.807,20.71],[70.806,20.71],[70.806,20.709],[70.806,20.709],[70.806,20.708],[70.807,20.708],[70.807,20.708],[70.806,20.708],[70.806,20.707],[70.806,20.707],[70.806,20.707],[70.806,20.707],[70.806,20.706],[70.806,20.706],[70.806,20.706],[70.807,20.706],[70.807,20.706],[70.807,20.706],[70.807,20.706],[70.807,20.706],[70.807,20.705],[70.808,20.705],[70.808,20.705],[70.808,20.705],[70.808,20.705],[70.81,20.705],[70.81,20.705],[70.811,20.705],[70.811,20.704],[70.811,20.704],[70.811,20.704],[70.811,20.704],[70.811,20.703],[70.81,20.703],[70.81,20.703],[70.81,20.703],[70.81,20.703],[70.809,20.703],[70.809,20.703],[70.809,20.703],[70.809,20.702],[70.808,20.702],[70.808,20.702],[70.807,20.702],[70.807,20.702],[70.806,20.702],[70.806,20.702],[70.805,20.702],[70.805,20.702],[70.805,20.702],[70.805,20.701],[70.804,20.701],[70.804,20.701],[70.803,20.701],[70.803,20.701],[70.803,20.701],[70.803,20.702],[70.803,20.702],[70.803,20.702],[70.802,20.702],[70.802,20.702],[70.802,20.702],[70.802,20.702],[70.801,20.702],[70.801,20.703],[70.801,20.703],[70.801,20.703],[70.801,20.703],[70.801,20.703],[70.8,20.703],[70.8,20.704],[70.8,20.704],[70.8,20.704],[70.799,20.704],[70.799,20.704],[70.799,20.704],[70.799,20.705],[70.799,20.705],[70.799,20.705],[70.798,20.705],[70.798,20.705],[70.798,20.705],[70.798,20.705],[70.798,20.705],[70.798,20.706],[70.797,20.706],[70.797,20.706],[70.797,20.706],[70.797,20.706],[70.797,20.706],[70.797,20.707],[70.797,20.707],[70.797,20.707],[70.796,20.707],[70.796,20.707],[70.796,20.707],[70.796,20.707],[70.796,20.707],[70.796,20.708],[70.795,20.708],[70.795,20.708],[70.795,20.708],[70.795,20.709],[70.795,20.709],[70.795,20.709],[70.795,20.709],[70.795,20.71],[70.794,20.71],[70.794,20.71],[70.794,20.71],[70.794,20.71],[70.794,20.71],[70.794,20.711],[70.793,20.711],[70.793,20.711],[70.793,20.711],[70.793,20.712],[70.793,20.712],[70.793,20.712],[70.793,20.712],[70.793,20.712],[70.792,20.712],[70.792,20.712],[70.792,20.712],[70.791,20.712],[70.791,20.713],[70.788,20.713],[70.788,20.713],[70.786,20.713],[70.786,20.713],[70.786,20.713],[70.786,20.714],[70.786,20.714],[70.786,20.714],[70.786,20.714],[70.784,20.714],[70.784,20.714],[70.783,20.714],[70.783,20.714],[70.783,20.714],[70.783,20.714],[70.782,20.714],[70.782,20.715],[70.78,20.715],[70.78,20.715],[70.779,20.715],[70.779,20.715],[70.778,20.715],[70.778,20.715],[70.778,20.715],[70.778,20.716],[70.777,20.716],[70.777,20.716],[70.777,20.716],[70.777,20.716],[70.777,20.716],[70.776,20.716],[70.776,20.717],[70.774,20.717],[70.774,20.717],[70.773,20.717],[70.773,20.717],[70.773,20.717],[70.773,20.717],[70.772,20.717],[70.772,20.718],[70.772,20.718],[70.772,20.718],[70.772,20.718],[70.772,20.718],[70.771,20.718],[70.771,20.718],[70.771,20.718],[70.771,20.719],[70.77,20.719],[70.77,20.719],[70.769,20.719],[70.769,20.719],[70.769,20.719],[70.769,20.72],[70.768,20.72],[70.768,20.72],[70.768,20.72],[70.768,20.72],[70.768,20.72],[70.768,20.72],[70.767,20.72],[70.767,20.721],[70.767,20.721],[70.767,20.721],[70.766,20.721],[70.766,20.721],[70.765,20.721],[70.765,20.722],[70.762,20.722],[70.762,20.722],[70.761,20.722],[70.761,20.722],[70.761,20.722],[70.761,20.722],[70.76,20.722],[70.76,20.722],[70.759,20.722],[70.759,20.722],[70.758,20.722],[70.758,20.723],[70.757,20.723],[70.757,20.722],[70.755,20.722],[70.755,20.722],[70.755,20.722],[70.755,20.722],[70.755,20.722],[70.755,20.722],[70.753,20.722],[70.753,20.721],[70.753,20.721],[70.753,20.721],[70.752,20.721],[70.752,20.721],[70.752,20.721],[70.752,20.72],[70.75,20.72],[70.75,20.72],[70.75,20.72],[70.75,20.72],[70.75,20.72],[70.75,20.72],[70.749,20.72],[70.749,20.719],[70.747,20.719],[70.747,20.72],[70.747,20.72],[70.747,20.72],[70.747,20.72],[70.747,20.72],[70.745,20.72],[70.745,20.72],[70.745,20.72],[70.745,20.72],[70.744,20.72],[70.744,20.72],[70.744,20.72],[70.744,20.72],[70.743,20.72],[70.743,20.72],[70.743,20.72],[70.743,20.721],[70.742,20.721],[70.742,20.721],[70.742,20.721],[70.742,20.721],[70.742,20.721],[70.742,20.722],[70.741,20.722],[70.741,20.722],[70.74,20.722],[70.74,20.722],[70.74,20.722],[70.74,20.722],[70.739,20.722],[70.739,20.723],[70.738,20.723],[70.738,20.723],[70.738,20.723],[70.738,20.723],[70.737,20.723],[70.737,20.723],[70.737,20.723],[70.737,20.724],[70.736,20.724],[70.736,20.724],[70.735,20.724],[70.735,20.724],[70.735,20.724],[70.735,20.725],[70.735,20.725],[70.735,20.725],[70.734,20.725],[70.734,20.725],[70.734,20.725],[70.734,20.726],[70.734,20.726],[70.734,20.726],[70.733,20.726],[70.733,20.726],[70.733,20.726],[70.733,20.727],[70.733,20.727],[70.733,20.727],[70.732,20.727],[70.732,20.727],[70.732,20.727],[70.732,20.727],[70.732,20.727],[70.732,20.728],[70.731,20.728],[70.731,20.728],[70.731,20.728],[70.731,20.728],[70.73,20.728],[70.73,20.728],[70.729,20.728],[70.729,20.729],[70.728,20.729],[70.728,20.728],[70.728,20.728],[70.728,20.729],[70.727,20.729],[70.727,20.729],[70.727,20.729],[70.727,20.729],[70.726,20.729],[70.726,20.73],[70.725,20.73],[70.725,20.73],[70.724,20.73],[70.724,20.73],[70.723,20.73],[70.723,20.73],[70.723,20.73],[70.723,20.731],[70.723,20.731],[70.723,20.731],[70.722,20.731],[70.722,20.731],[70.722,20.731],[70.722,20.732],[70.721,20.732],[70.721,20.732],[70.72,20.732],[70.72,20.732],[70.72,20.732],[70.72,20.732],[70.719,20.732],[70.719,20.733],[70.718,20.733],[70.718,20.733],[70.718,20.733],[70.718,20.733],[70.717,20.733],[70.717,20.733],[70.717,20.733],[70.717,20.734],[70.716,20.734],[70.716,20.734],[70.716,20.734],[70.716,20.734],[70.715,20.734],[70.715,20.735],[70.714,20.735],[70.714,20.735],[70.714,20.735],[70.714,20.735],[70.713,20.735],[70.713,20.735],[70.713,20.735],[70.713,20.736],[70.713,20.736],[70.713,20.736],[70.712,20.736],[70.712,20.736],[70.711,20.736],[70.711,20.737],[70.711,20.737],[70.711,20.737],[70.71,20.737],[70.71,20.737],[70.71,20.737],[70.71,20.737],[70.709,20.737],[70.709,20.738],[70.708,20.738],[70.708,20.738],[70.707,20.738],[70.707,20.738],[70.705,20.738],[70.705,20.738],[70.703,20.738],[70.703,20.738],[70.703,20.738],[70.703,20.739],[70.703,20.739],[70.703,20.739],[70.702,20.739],[70.702,20.739],[70.702,20.739],[70.702,20.74],[70.702,20.74],[70.702,20.74],[70.701,20.74],[70.701,20.74],[70.701,20.74],[70.701,20.741],[70.701,20.741],[70.701,20.741],[70.7,20.741],[70.7,20.742],[70.7,20.742],[70.7,20.742],[70.699,20.742],[70.699,20.742],[70.699,20.742],[70.699,20.742],[70.699,20.742],[70.699,20.743],[70.698,20.743],[70.698,20.743],[70.698,20.743],[70.698,20.743],[70.698,20.743],[70.698,20.743],[70.697,20.743],[70.697,20.744],[70.697,20.744],[70.697,20.744],[70.696,20.744],[70.696,20.744],[70.696,20.744],[70.696,20.745],[70.696,20.745],[70.696,20.745],[70.695,20.745],[70.695,20.745],[70.695,20.745],[70.695,20.746],[70.694,20.746],[70.694,20.746],[70.693,20.746],[70.693,20.746],[70.693,20.746],[70.693,20.747],[70.693,20.747],[70.693,20.747],[70.692,20.747],[70.692,20.747],[70.692,20.747],[70.692,20.747],[70.691,20.747],[70.691,20.748],[70.689,20.748],[70.689,20.748],[70.688,20.748],[70.688,20.748],[70.688,20.748],[70.688,20.748],[70.687,20.748],[70.687,20.749],[70.687,20.749],[70.687,20.749],[70.686,20.749],[70.686,20.749],[70.686,20.749],[70.686,20.75],[70.686,20.75],[70.686,20.75],[70.685,20.75],[70.685,20.75],[70.685,20.75],[70.685,20.75],[70.684,20.75],[70.684,20.751],[70.684,20.751],[70.684,20.751],[70.683,20.751],[70.683,20.751],[70.683,20.751],[70.683,20.752],[70.683,20.752],[70.683,20.752],[70.682,20.752],[70.682,20.752],[70.682,20.752],[70.682,20.753],[70.682,20.753],[70.682,20.753],[70.682,20.753],[70.682,20.753],[70.681,20.753],[70.681,20.753],[70.681,20.753],[70.681,20.753],[70.681,20.754],[70.681,20.754],[70.681,20.754],[70.68,20.754],[70.68,20.754],[70.68,20.754],[70.68,20.755],[70.679,20.755],[70.679,20.755],[70.678,20.755],[70.678,20.755],[70.678,20.755],[70.678,20.755],[70.677,20.755],[70.677,20.756],[70.677,20.756],[70.677,20.756],[70.677,20.756],[70.677,20.756],[70.677,20.756],[70.677,20.757],[70.676,20.757],[70.676,20.757],[70.675,20.757],[70.675,20.757],[70.675,20.757],[70.675,20.757],[70.675,20.757],[70.675,20.758],[70.674,20.758],[70.674,20.758],[70.674,20.758],[70.674,20.759],[70.674,20.759],[70.674,20.76],[70.674,20.76],[70.674,20.76],[70.674,20.76],[70.674,20.761],[70.673,20.761],[70.673,20.762],[70.674,20.762],[70.674,20.763],[70.676,20.763],[70.678,20.765],[70.678,20.766],[70.677,20.769],[70.675,20.77],[70.677,20.772],[70.683,20.784],[70.685,20.792],[70.682,20.801],[70.678,20.809],[70.676,20.819],[70.678,20.826],[70.677,20.835],[70.679,20.844],[70.684,20.851],[70.694,20.883],[70.703,20.895],[70.713,20.906],[70.718,20.912],[70.718,20.916],[70.719,20.937],[70.722,20.944],[70.731,20.96],[70.739,20.969],[70.741,20.974],[70.74,20.977],[70.735,20.986],[70.734,20.988],[70.736,20.99],[70.742,20.99],[70.746,20.989],[70.756,20.974],[70.762,20.966],[70.768,20.962]]]]}}]}