{"type":"FeatureCollection","features":[{"type":"Feature","properties":{"NAME_1":"Delhi","NAME_2":"Delhi"},"geometry":{"type":"Polygon","coordinates":[[[77.217,28.835],[77.214,28.813],[77.195,28.815],[77.194,28.802],[77.197,28.795],[77.203,28.789],[77.208,28.787],[77.213,28.786],[77.218,28.788],[77.225,28.788],[77.222,28.784],[77.217,28.782],[77.221,28.778],[77.229,28.772],[77.238,28.759],[77.246,28.757],[77.248,28.758],[77.253,28.753],[77.252,28.746],[77.256,28.74],[77.26,28.738],[77.266,28.739],[77.271,28.738],[77.277,28.734],[77.281,28.73],[77.284,28.724],[77.284,28.719],[77.285,28.712],[77.293,28.71],[77.296,28.713],[77.301,28.717],[77.306,28.718],[77.317,28.717],[77.323,28.716],[77.322,28.712],[77.32,28.704],[77.321,28.7],[77.328,28.692],[77.327,28.685],[77.325,28.683],[77.318,28.679],[77.318,28.672],[77.315,28.663],[77.315,28.651],[77.313,28.647],[77.311,28.645],[77.314,28.643],[77.321,28.636],[77.33,28.631],[77.334,28.627],[77.337,28.622],[77.338,28.617],[77.336,28.609],[77.333,28.607],[77.328,28.605],[77.317,28.6],[77.31,28.599],[77.307,28.597],[77.295,28.582],[77.294,28.58],[77.294,28.567],[77.295,28.561],[77.303,28.55],[77.311,28.544],[77.315,28.541],[77.322,28.536],[77.331,28.524],[77.334,28.521],[77.337,28.516],[77.338,28.509],[77.334,28.511],[77.329,28.508],[77.327,28.503],[77.322,28.499],[77.315,28.495],[77.307,28.491],[77.301,28.49],[77.296,28.491],[77.286,28.496],[77.278,28.498],[77.271,28.497],[77.26,28.488],[77.254,28.486],[77.243,28.485],[77.237,28.48],[77.232,28.476],[77.228,28.47],[77.226,28.464],[77.226,28.46],[77.233,28.459],[77.24,28.454],[77.243,28.447],[77.244,28.442],[77.243,28.434],[77.241,28.429],[77.223,28.419],[77.215,28.416],[77.206,28.413],[77.195,28.413],[77.179,28.412],[77.166,28.408],[77.154,28.421],[77.152,28.428],[77.142,28.436],[77.131,28.439],[77.124,28.439],[77.118,28.442],[77.113,28.45],[77.109,28.457],[77.106,28.466],[77.103,28.47],[77.102,28.476],[77.103,28.483],[77.108,28.494],[77.104,28.497],[77.09,28.505],[77.086,28.511],[77.072,28.52],[77.067,28.521],[77.057,28.514],[77.049,28.515],[77.042,28.519],[77.033,28.528],[77.02,28.533],[77.016,28.533],[77.006,28.543],[77,28.542],[76.996,28.537],[76.998,28.532],[77.005,28.529],[77.011,28.524],[77.011,28.518],[77.006,28.514],[76.99,28.52],[76.977,28.524],[76.968,28.528],[76.945,28.514],[76.933,28.516],[76.923,28.519],[76.908,28.515],[76.897,28.518],[76.894,28.516],[76.887,28.511],[76.879,28.509],[76.874,28.514],[76.879,28.524],[76.876,28.528],[76.859,28.542],[76.857,28.548],[76.838,28.557],[76.833,28.583],[76.835,28.591],[76.85,28.59],[76.855,28.592],[76.861,28.603],[76.878,28.638],[76.894,28.633],[76.897,28.633],[76.904,28.638],[76.91,28.638],[76.924,28.629],[76.926,28.629],[76.934,28.638],[76.918,28.653],[76.917,28.657],[76.923,28.669],[76.93,28.674],[76.943,28.675],[76.947,28.677],[76.946,28.683],[76.948,28.688],[76.95,28.694],[76.954,28.701],[76.955,28.705],[76.951,28.71],[76.941,28.717],[76.951,28.736],[76.949,28.742],[76.95,28.747],[76.947,28.751],[76.938,28.76],[76.947,28.774],[76.944,28.779],[76.942,28.788],[76.943,28.795],[76.937,28.804],[76.937,28.809],[76.942,28.821],[76.948,28.818],[76.956,28.82],[76.958,28.83],[76.961,28.832],[76.971,28.825],[76.974,28.826],[76.98,28.837],[76.983,28.839],[76.99,28.839],[77.007,28.835],[77.019,28.837],[77.025,28.836],[77.032,28.837],[77.038,28.853],[77.05,28.873],[77.066,28.873],[77.07,28.88],[77.076,28.885],[77.083,28.875],[77.099,28.872],[77.107,28.868],[77.11,28.866],[77.129,28.865],[77.135,28.858],[77.136,28.853],[77.134,28.845],[77.139,28.842],[77.142,28.842],[77.151,28.848],[77.16,28.857],[77.165,28.861],[77.184,28.862],[77.187,28.867],[77.193,28.865],[77.2,28.865],[77.205,28.863],[77.208,28.86],[77.211,28.855],[77.211,28.845],[77.217,28.835]]]}}]}