{"type":"FeatureCollection","features":[{"type":"Feature","properties":{"NAME_1":"Jammu and Kashmir","NAME_2":"Anantnag (Kashmir South)"},"geometry":{"type":"Polygon","coordinates":[[[75.743,34.192],[75.734,34.179],[75.714,34.161],[75.698,34.139],[75.683,34.105],[75.659,34.066],[75.641,34.049],[75.616,34.044],[75.599,34.044],[75.576,34.025],[75.557,34.002],[75.54,33.977],[75.536,33.954],[75.525,33.934],[75.54,33.906],[75.561,33.872],[75.578,33.842],[75.587,33.818],[75.618,33.784],[75.631,33.75],[75.63,33.731],[75.624,33.705],[75.622,33.675],[75.639,33.658],[75.648,33.648],[75.662,33.62],[75.656,33.602],[75.651,33.58],[75.64,33.552],[75.619,33.526],[75.61,33.495],[75.592,33.453],[75.584,33.433],[75.572,33.393],[75.559,33.375],[75.55,33.371],[75.544,33.369],[75.52,33.377],[75.491,33.38],[75.462,33.398],[75.442,33.42],[75.421,33.444],[75.403,33.461],[75.378,33.479],[75.357,33.491],[75.33,33.51],[75.306,33.518],[75.291,33.528],[75.289,33.535],[75.295,33.551],[75.305,33.565],[75.314,33.583],[75.303,33.597],[75.282,33.599],[75.262,33.593],[75.243,33.586],[75.235,33.569],[75.24,33.546],[75.251,33.532],[75.241,33.513],[75.216,33.501],[75.195,33.5],[75.186,33.481],[75.185,33.465],[75.157,33.467],[75.131,33.473],[75.112,33.484],[75.094,33.489],[75.069,33.488],[75.04,33.487],[75.016,33.486],[74.99,33.479],[74.97,33.48],[74.941,33.498],[74.914,33.515],[74.877,33.522],[74.84,33.525],[74.815,33.512],[74.796,33.504],[74.772,33.505],[74.753,33.508],[74.739,33.51],[74.728,33.504],[74.716,33.525],[74.711,33.545],[74.703,33.564],[74.695,33.588],[74.695,33.615],[74.694,33.632],[74.697,33.649],[74.702,33.667],[74.711,33.688],[74.716,33.696],[74.724,33.686],[74.752,33.681],[74.81,33.646],[74.876,33.64],[74.936,33.663],[74.979,33.681],[75.057,33.741],[75.128,33.758],[75.215,33.816],[75.209,33.85],[75.22,33.896],[75.215,33.939],[75.22,33.991],[75.237,34.034],[75.243,34.048],[75.258,34.088],[75.26,34.134],[75.252,34.149],[75.283,34.198],[75.306,34.221],[75.384,34.255],[75.404,34.281],[75.416,34.324],[75.439,34.347],[75.478,34.374],[75.496,34.36],[75.513,34.339],[75.529,34.326],[75.552,34.303],[75.578,34.276],[75.607,34.255],[75.634,34.231],[75.657,34.223],[75.673,34.222],[75.688,34.215],[75.709,34.207],[75.722,34.207],[75.738,34.203],[75.743,34.192]]]}},{"type":"Feature","properties":{"NAME_1":"Jammu and Kashmir","NAME_2":"Bagdam"},"geometry":{"type":"Polygon","coordinates":[[[74.997,34.042],[75,34.03],[74.996,34.011],[75.004,33.991],[75.008,33.976],[74.993,33.96],[74.986,33.932],[74.983,33.915],[74.984,33.901],[74.98,33.88],[74.969,33.853],[74.954,33.837],[74.93,33.826],[74.907,33.822],[74.881,33.819],[74.861,33.81],[74.815,33.778],[74.788,33.758],[74.768,33.739],[74.735,33.715],[74.724,33.686],[74.719,33.712],[74.705,33.722],[74.69,33.734],[74.676,33.762],[74.667,33.784],[74.657,33.797],[74.64,33.819],[74.626,33.842],[74.619,33.865],[74.615,33.898],[74.611,33.932],[74.603,33.957],[74.591,33.971],[74.574,33.98],[74.557,33.988],[74.542,34.006],[74.53,34.028],[74.56,34.045],[74.631,34.051],[74.654,34.074],[74.695,34.086],[74.746,34.106],[74.772,34.12],[74.838,34.114],[74.873,34.129],[74.886,34.153],[74.896,34.143],[74.933,34.102],[74.957,34.077],[74.976,34.06],[74.996,34.045],[74.997,34.042]]]}},{"type":"Feature","properties":{"NAME_1":"Jammu and Kashmir","NAME_2":"Baramula (Kashmir North)"},"geometry":{"type":"Polygon","coordinates":[[[74.648,34.723],[74.658,34.711],[74.671,34.701],[74.703,34.693],[74.728,34.689],[74.739,34.687],[74.763,34.684],[74.766,34.685],[74.772,34.683],[74.787,34.683],[74.836,34.678],[74.854,34.678],[74.89,34.684],[74.894,34.684],[74.911,34.683],[74.928,34.678],[74.947,34.666],[74.998,34.651],[75,34.649],[75.004,34.647],[75.019,34.641],[75.03,34.641],[75.042,34.641],[75.051,34.644],[75.054,34.647],[75.085,34.655],[75.106,34.656],[75.111,34.658],[75.142,34.662],[75.165,34.66],[75.177,34.657],[75.178,34.657],[75.207,34.646],[75.236,34.648],[75.25,34.647],[75.26,34.644],[75.266,34.64],[75.267,34.635],[75.258,34.618],[75.262,34.611],[75.279,34.602],[75.335,34.572],[75.351,34.562],[75.378,34.552],[75.395,34.549],[75.414,34.547],[75.465,34.543],[75.464,34.531],[75.452,34.51],[75.441,34.487],[75.446,34.463],[75.452,34.447],[75.459,34.434],[75.468,34.422],[75.475,34.408],[75.477,34.399],[75.482,34.392],[75.478,34.374],[75.473,34.38],[75.465,34.375],[75.448,34.372],[75.425,34.372],[75.4,34.378],[75.383,34.388],[75.353,34.395],[75.329,34.39],[75.314,34.378],[75.305,34.358],[75.282,34.362],[75.264,34.368],[75.242,34.379],[75.22,34.392],[75.2,34.407],[75.177,34.421],[75.151,34.446],[75.106,34.464],[75.074,34.466],[75.053,34.458],[75.049,34.44],[75.043,34.413],[75.042,34.386],[75.025,34.374],[75,34.369],[74.96,34.352],[74.933,34.334],[74.914,34.335],[74.89,34.346],[74.863,34.348],[74.837,34.353],[74.807,34.35],[74.796,34.34],[74.795,34.321],[74.799,34.306],[74.791,34.287],[74.787,34.27],[74.793,34.254],[74.805,34.237],[74.814,34.219],[74.835,34.2],[74.852,34.178],[74.872,34.167],[74.886,34.153],[74.873,34.129],[74.838,34.114],[74.772,34.12],[74.746,34.106],[74.695,34.086],[74.654,34.074],[74.631,34.051],[74.56,34.045],[74.53,34.028],[74.517,34.02],[74.51,34.026],[74.489,34.014],[74.465,34.001],[74.443,34.001],[74.41,34.002],[74.389,34.005],[74.371,34.006],[74.365,34.003],[74.325,34.003],[74.281,34.005],[74.265,34.021],[74.239,34.046],[74.205,34.078],[74.176,34.081],[74.123,34.095],[74.076,34.089],[74.055,34.099],[74.029,34.104],[74.014,34.104],[73.981,34.103],[73.948,34.105],[73.923,34.097],[73.913,34.077],[73.901,34.064],[73.884,34.061],[73.886,34.075],[73.904,34.097],[73.904,34.122],[73.917,34.142],[73.945,34.17],[73.977,34.212],[73.982,34.239],[73.976,34.265],[73.941,34.302],[73.92,34.342],[73.913,34.348],[73.967,34.35],[74.008,34.347],[74.053,34.339],[74.095,34.305],[74.136,34.305],[74.166,34.339],[74.218,34.335],[74.253,34.328],[74.261,34.321],[74.269,34.314],[74.334,34.302],[74.402,34.317],[74.443,34.377],[74.458,34.418],[74.458,34.448],[74.514,34.47],[74.522,34.474],[74.529,34.5],[74.526,34.526],[74.503,34.556],[74.503,34.586],[74.552,34.616],[74.586,34.65],[74.612,34.71],[74.648,34.723]]]}},{"type":"Feature","properties":{"NAME_1":"Jammu and Kashmir","NAME_2":"Doda"},"geometry":{"type":"Polygon","coordinates":[[[75.743,34.192],[75.769,34.177],[75.793,34.149],[75.808,34.107],[75.835,34.072],[75.859,34.05],[75.883,34.024],[75.909,34.003],[75.938,33.981],[75.967,33.967],[75.999,33.962],[76.03,33.963],[76.062,33.971],[76.097,33.986],[76.109,33.979],[76.132,33.964],[76.16,33.931],[76.18,33.907],[76.197,33.883],[76.228,33.864],[76.243,33.842],[76.258,33.82],[76.278,33.792],[76.294,33.772],[76.304,33.75],[76.326,33.729],[76.333,33.705],[76.335,33.693],[76.333,33.672],[76.327,33.643],[76.317,33.615],[76.309,33.584],[76.307,33.562],[76.324,33.555],[76.345,33.564],[76.367,33.57],[76.386,33.58],[76.4,33.595],[76.421,33.592],[76.446,33.567],[76.462,33.549],[76.473,33.534],[76.49,33.526],[76.51,33.529],[76.534,33.535],[76.554,33.51],[76.577,33.487],[76.601,33.475],[76.622,33.461],[76.635,33.44],[76.656,33.429],[76.671,33.427],[76.687,33.422],[76.707,33.41],[76.703,33.395],[76.707,33.373],[76.715,33.357],[76.727,33.345],[76.75,33.343],[76.759,33.334],[76.77,33.325],[76.777,33.312],[76.774,33.292],[76.774,33.28],[76.784,33.269],[76.795,33.252],[76.808,33.244],[76.808,33.242],[76.806,33.236],[76.803,33.237],[76.797,33.241],[76.785,33.254],[76.778,33.256],[76.764,33.254],[76.76,33.253],[76.757,33.251],[76.755,33.249],[76.755,33.247],[76.758,33.243],[76.762,33.24],[76.76,33.225],[76.756,33.22],[76.751,33.21],[76.746,33.204],[76.742,33.197],[76.734,33.193],[76.731,33.185],[76.73,33.179],[76.714,33.177],[76.708,33.181],[76.697,33.181],[76.694,33.178],[76.685,33.174],[76.669,33.173],[76.661,33.171],[76.659,33.171],[76.659,33.171],[76.651,33.172],[76.641,33.165],[76.627,33.162],[76.613,33.166],[76.6,33.174],[76.598,33.177],[76.599,33.184],[76.597,33.188],[76.593,33.191],[76.588,33.19],[76.584,33.193],[76.585,33.2],[76.586,33.204],[76.582,33.207],[76.577,33.206],[76.568,33.207],[76.563,33.206],[76.556,33.207],[76.547,33.21],[76.542,33.207],[76.534,33.199],[76.52,33.2],[76.506,33.196],[76.499,33.197],[76.496,33.196],[76.489,33.19],[76.469,33.18],[76.466,33.18],[76.456,33.183],[76.45,33.183],[76.442,33.18],[76.43,33.183],[76.422,33.182],[76.408,33.188],[76.401,33.187],[76.392,33.187],[76.385,33.183],[76.38,33.176],[76.374,33.173],[76.366,33.168],[76.361,33.163],[76.359,33.158],[76.356,33.155],[76.352,33.155],[76.336,33.146],[76.316,33.13],[76.307,33.127],[76.292,33.12],[76.288,33.113],[76.275,33.104],[76.277,33.101],[76.276,33.098],[76.271,33.096],[76.268,33.086],[76.255,33.052],[76.237,33.033],[76.23,33.031],[76.229,33.03],[76.216,33.029],[76.188,33.028],[76.152,33.023],[76.144,33.016],[76.128,33.01],[76.12,33.01],[76.116,33.009],[76.107,33.008],[76.094,33.005],[76.095,33],[76.091,32.993],[76.086,32.975],[76.082,32.969],[76.078,32.966],[76.07,32.962],[76.066,32.958],[76.054,32.951],[76.05,32.944],[76.043,32.94],[76.028,32.937],[76.024,32.932],[76.021,32.924],[76.017,32.918],[76.014,32.916],[76.005,32.914],[75.998,32.909],[75.987,32.901],[75.983,32.9],[75.946,32.885],[75.94,32.884],[75.934,32.884],[75.923,32.898],[75.914,32.906],[75.9,32.916],[75.881,32.925],[75.867,32.93],[75.85,32.931],[75.834,32.935],[75.828,32.934],[75.821,32.933],[75.808,32.93],[75.803,32.924],[75.798,32.919],[75.802,32.91],[75.8,32.904],[75.798,32.902],[75.779,32.905],[75.699,32.929],[75.666,32.938],[75.636,32.948],[75.588,32.97],[75.553,33.001],[75.512,33.031],[75.459,33.057],[75.412,33.077],[75.348,33.103],[75.292,33.125],[75.233,33.13],[75.232,33.132],[75.226,33.15],[75.232,33.175],[75.256,33.211],[75.27,33.23],[75.28,33.253],[75.283,33.289],[75.272,33.312],[75.247,33.34],[75.232,33.348],[75.202,33.366],[75.181,33.38],[75.171,33.396],[75.171,33.415],[75.171,33.44],[75.174,33.458],[75.185,33.465],[75.186,33.481],[75.195,33.5],[75.216,33.501],[75.241,33.513],[75.251,33.532],[75.24,33.546],[75.235,33.569],[75.243,33.586],[75.262,33.593],[75.282,33.599],[75.303,33.597],[75.314,33.583],[75.305,33.565],[75.295,33.551],[75.289,33.535],[75.291,33.528],[75.306,33.518],[75.33,33.51],[75.357,33.491],[75.378,33.479],[75.403,33.461],[75.421,33.444],[75.442,33.42],[75.462,33.398],[75.491,33.38],[75.52,33.377],[75.544,33.369],[75.55,33.371],[75.559,33.375],[75.572,33.393],[75.584,33.433],[75.592,33.453],[75.61,33.495],[75.619,33.526],[75.64,33.552],[75.651,33.58],[75.656,33.602],[75.662,33.62],[75.648,33.648],[75.639,33.658],[75.622,33.675],[75.624,33.705],[75.63,33.731],[75.631,33.75],[75.618,33.784],[75.587,33.818],[75.578,33.842],[75.561,33.872],[75.54,33.906],[75.525,33.934],[75.536,33.954],[75.54,33.977],[75.557,34.002],[75.576,34.025],[75.599,34.044],[75.616,34.044],[75.641,34.049],[75.659,34.066],[75.683,34.105],[75.698,34.139],[75.714,34.161],[75.734,34.179],[75.743,34.192]]]}},{"type":"Feature","properties":{"NAME_1":"Jammu and Kashmir","NAME_2":"Jammu"},"geometry":{"type":"Polygon","coordinates":[[[74.676,33.001],[74.677,33],[74.709,32.993],[74.736,32.984],[74.756,32.976],[74.775,32.97],[74.785,32.976],[74.794,32.99],[74.797,33.008],[74.798,33.025],[74.801,33.037],[74.817,33.042],[74.855,33.043],[74.872,33.043],[74.89,33.047],[74.903,33.051],[74.921,33.053],[74.94,33.053],[74.951,33.038],[74.961,33.021],[74.963,32.993],[74.965,32.973],[74.957,32.955],[74.958,32.931],[74.971,32.917],[74.986,32.913],[75.001,32.915],[75.016,32.93],[75.033,32.931],[75.044,32.907],[75.058,32.89],[75.069,32.88],[75.083,32.883],[75.101,32.879],[75.118,32.876],[75.134,32.877],[75.144,32.874],[75.158,32.871],[75.169,32.866],[75.187,32.854],[75.21,32.839],[75.226,32.829],[75.241,32.817],[75.251,32.794],[75.255,32.772],[75.248,32.747],[75.236,32.721],[75.239,32.702],[75.254,32.687],[75.289,32.668],[75.318,32.66],[75.341,32.642],[75.364,32.634],[75.378,32.635],[75.407,32.627],[75.42,32.627],[75.421,32.624],[75.426,32.617],[75.431,32.609],[75.427,32.588],[75.408,32.576],[75.388,32.573],[75.375,32.562],[75.352,32.555],[75.319,32.547],[75.297,32.553],[75.283,32.538],[75.27,32.531],[75.254,32.514],[75.24,32.515],[75.229,32.507],[75.215,32.496],[75.209,32.471],[75.197,32.404],[75.195,32.405],[75.193,32.418],[75.192,32.42],[75.189,32.424],[75.18,32.425],[75.172,32.422],[75.16,32.417],[75.148,32.413],[75.139,32.415],[75.128,32.421],[75.121,32.441],[75.119,32.444],[75.114,32.449],[75.11,32.454],[75.107,32.455],[75.098,32.466],[75.083,32.48],[75.072,32.483],[75.063,32.482],[75.061,32.482],[75.037,32.492],[75.03,32.492],[75.021,32.485],[75.012,32.476],[75.006,32.469],[75.002,32.463],[75,32.459],[74.988,32.45],[74.979,32.448],[74.973,32.448],[74.964,32.453],[74.949,32.454],[74.944,32.461],[74.934,32.468],[74.924,32.468],[74.9,32.466],[74.897,32.467],[74.891,32.47],[74.885,32.478],[74.883,32.482],[74.883,32.482],[74.883,32.482],[74.879,32.484],[74.877,32.486],[74.862,32.489],[74.856,32.493],[74.846,32.494],[74.835,32.496],[74.819,32.496],[74.799,32.484],[74.761,32.482],[74.758,32.48],[74.748,32.479],[74.747,32.479],[74.744,32.481],[74.721,32.482],[74.698,32.485],[74.687,32.493],[74.682,32.502],[74.681,32.504],[74.679,32.515],[74.683,32.53],[74.681,32.538],[74.662,32.551],[74.66,32.553],[74.652,32.56],[74.648,32.572],[74.643,32.596],[74.642,32.611],[74.649,32.626],[74.658,32.637],[74.669,32.646],[74.676,32.658],[74.676,32.666],[74.675,32.667],[74.669,32.675],[74.662,32.68],[74.654,32.692],[74.65,32.718],[74.662,32.755],[74.668,32.763],[74.668,32.767],[74.678,32.782],[74.688,32.796],[74.695,32.81],[74.7,32.827],[74.697,32.84],[74.681,32.838],[74.661,32.828],[74.642,32.823],[74.638,32.818],[74.637,32.811],[74.642,32.792],[74.633,32.778],[74.614,32.758],[74.608,32.757],[74.594,32.757],[74.579,32.753],[74.574,32.756],[74.567,32.755],[74.543,32.745],[74.541,32.745],[74.532,32.741],[74.503,32.76],[74.48,32.773],[74.478,32.775],[74.472,32.778],[74.466,32.781],[74.462,32.791],[74.462,32.792],[74.457,32.802],[74.454,32.805],[74.451,32.817],[74.445,32.826],[74.443,32.829],[74.43,32.845],[74.426,32.858],[74.429,32.88],[74.428,32.884],[74.425,32.893],[74.414,32.904],[74.406,32.907],[74.389,32.908],[74.386,32.909],[74.368,32.908],[74.365,32.908],[74.348,32.908],[74.327,32.913],[74.318,32.92],[74.316,32.93],[74.321,32.941],[74.335,32.955],[74.374,32.946],[74.399,32.946],[74.417,32.974],[74.449,33],[74.473,32.997],[74.498,32.978],[74.533,32.959],[74.565,32.959],[74.585,32.965],[74.58,32.969],[74.596,32.982],[74.615,32.997],[74.631,32.984],[74.651,33.006],[74.676,33.001]]]}},{"type":"Feature","properties":{"NAME_1":"Jammu and Kashmir","NAME_2":"Kargil"},"geometry":{"type":"Polygon","coordinates":[[[75.465,34.543],[75.479,34.539],[75.506,34.537],[75.517,34.538],[75.521,34.54],[75.552,34.538],[75.565,34.539],[75.579,34.539],[75.592,34.54],[75.616,34.539],[75.644,34.534],[75.692,34.522],[75.714,34.518],[75.729,34.516],[75.749,34.516],[75.769,34.522],[75.793,34.534],[75.81,34.548],[75.821,34.559],[75.841,34.573],[75.843,34.575],[75.881,34.591],[75.912,34.601],[75.919,34.605],[75.932,34.624],[75.946,34.631],[75.967,34.634],[75.968,34.633],[75.983,34.629],[75.992,34.63],[76,34.636],[76.014,34.654],[76.025,34.664],[76.036,34.67],[76.055,34.676],[76.074,34.676],[76.086,34.671],[76.093,34.667],[76.122,34.647],[76.131,34.644],[76.139,34.642],[76.158,34.643],[76.193,34.655],[76.198,34.659],[76.227,34.672],[76.234,34.673],[76.26,34.684],[76.275,34.694],[76.283,34.702],[76.29,34.712],[76.302,34.724],[76.316,34.732],[76.329,34.733],[76.339,34.631],[76.343,34.559],[76.367,34.511],[76.372,34.42],[76.367,34.347],[76.42,34.256],[76.444,34.232],[76.473,34.237],[76.531,34.198],[76.589,34.174],[76.651,34.155],[76.685,34.136],[76.752,34.078],[76.825,33.958],[76.892,33.914],[76.969,33.885],[77.036,33.881],[77.142,33.847],[77.253,33.784],[77.311,33.779],[77.431,33.722],[77.508,33.63],[77.561,33.529],[77.522,33.433],[77.47,33.361],[77.412,33.351],[77.364,33.274],[77.378,33.192],[77.446,33.086],[77.484,33.014],[77.508,32.928],[77.523,32.89],[77.52,32.887],[77.511,32.885],[77.506,32.883],[77.494,32.882],[77.485,32.887],[77.473,32.879],[77.455,32.862],[77.448,32.862],[77.436,32.866],[77.432,32.87],[77.431,32.876],[77.426,32.884],[77.418,32.879],[77.41,32.878],[77.403,32.881],[77.399,32.884],[77.397,32.887],[77.395,32.887],[77.387,32.886],[77.379,32.881],[77.371,32.867],[77.363,32.864],[77.36,32.86],[77.359,32.856],[77.36,32.852],[77.363,32.847],[77.362,32.843],[77.36,32.838],[77.356,32.825],[77.348,32.821],[77.34,32.821],[77.336,32.819],[77.328,32.82],[77.322,32.822],[77.321,32.828],[77.317,32.83],[77.311,32.838],[77.313,32.846],[77.305,32.854],[77.298,32.854],[77.289,32.853],[77.281,32.856],[77.274,32.86],[77.27,32.866],[77.258,32.876],[77.248,32.865],[77.239,32.865],[77.238,32.869],[77.236,32.872],[77.228,32.877],[77.225,32.88],[77.224,32.883],[77.227,32.884],[77.229,32.887],[77.228,32.896],[77.218,32.897],[77.205,32.906],[77.189,32.91],[77.182,32.915],[77.174,32.931],[77.167,32.928],[77.164,32.925],[77.162,32.921],[77.16,32.916],[77.157,32.913],[77.146,32.914],[77.151,32.92],[77.147,32.934],[77.149,32.938],[77.149,32.941],[77.146,32.943],[77.146,32.956],[77.136,32.958],[77.135,32.961],[77.136,32.965],[77.134,32.969],[77.136,32.974],[77.136,32.98],[77.128,32.984],[77.12,32.983],[77.112,32.984],[77.103,32.987],[77.097,32.978],[77.084,32.974],[77.075,32.973],[77.072,32.976],[77.066,32.986],[77.058,32.986],[77.052,32.991],[77.035,33],[77.024,32.997],[77.02,32.992],[77.011,32.993],[76.998,32.99],[76.994,32.992],[76.991,32.993],[76.987,32.996],[76.981,33.001],[76.967,33.007],[76.964,33.01],[76.962,33.014],[76.957,33.017],[76.948,33.018],[76.933,33.028],[76.924,33.029],[76.918,33.034],[76.915,33.039],[76.913,33.044],[76.91,33.05],[76.9,33.064],[76.897,33.071],[76.896,33.076],[76.891,33.081],[76.891,33.085],[76.895,33.091],[76.894,33.095],[76.885,33.097],[76.877,33.107],[76.877,33.114],[76.869,33.12],[76.86,33.116],[76.853,33.112],[76.844,33.112],[76.839,33.115],[76.834,33.121],[76.837,33.126],[76.828,33.132],[76.829,33.138],[76.823,33.141],[76.817,33.142],[76.815,33.146],[76.809,33.149],[76.803,33.156],[76.801,33.162],[76.802,33.166],[76.799,33.169],[76.798,33.173],[76.8,33.178],[76.805,33.182],[76.807,33.185],[76.803,33.194],[76.819,33.206],[76.817,33.212],[76.811,33.215],[76.813,33.223],[76.818,33.231],[76.823,33.237],[76.829,33.243],[76.828,33.246],[76.827,33.247],[76.824,33.248],[76.822,33.248],[76.817,33.249],[76.814,33.247],[76.809,33.244],[76.808,33.242],[76.808,33.244],[76.795,33.252],[76.784,33.269],[76.774,33.28],[76.774,33.292],[76.777,33.312],[76.77,33.325],[76.759,33.334],[76.75,33.343],[76.727,33.345],[76.715,33.357],[76.707,33.373],[76.703,33.395],[76.707,33.41],[76.687,33.422],[76.671,33.427],[76.656,33.429],[76.635,33.44],[76.622,33.461],[76.601,33.475],[76.577,33.487],[76.554,33.51],[76.534,33.535],[76.51,33.529],[76.49,33.526],[76.473,33.534],[76.462,33.549],[76.446,33.567],[76.421,33.592],[76.4,33.595],[76.386,33.58],[76.367,33.57],[76.345,33.564],[76.324,33.555],[76.307,33.562],[76.309,33.584],[76.317,33.615],[76.327,33.643],[76.333,33.672],[76.335,33.693],[76.333,33.705],[76.326,33.729],[76.304,33.75],[76.294,33.772],[76.278,33.792],[76.258,33.82],[76.243,33.842],[76.228,33.864],[76.197,33.883],[76.18,33.907],[76.16,33.931],[76.132,33.964],[76.109,33.979],[76.097,33.986],[76.062,33.971],[76.03,33.963],[75.999,33.962],[75.967,33.967],[75.938,33.981],[75.909,34.003],[75.883,34.024],[75.859,34.05],[75.835,34.072],[75.808,34.107],[75.793,34.149],[75.769,34.177],[75.743,34.192],[75.738,34.203],[75.722,34.207],[75.709,34.207],[75.688,34.215],[75.673,34.222],[75.657,34.223],[75.634,34.231],[75.607,34.255],[75.578,34.276],[75.552,34.303],[75.529,34.326],[75.513,34.339],[75.496,34.36],[75.478,34.374],[75.482,34.392],[75.477,34.399],[75.475,34.408],[75.468,34.422],[75.459,34.434],[75.452,34.447],[75.446,34.463],[75.441,34.487],[75.452,34.51],[75.464,34.531],[75.465,34.543]]]}},{"type":"Feature","properties":{"NAME_1":"Jammu and Kashmir","NAME_2":"Kathua"},"geometry":{"type":"Polygon","coordinates":[[[75.905,32.615],[75.886,32.592],[75.873,32.576],[75.872,32.575],[75.857,32.558],[75.838,32.538],[75.831,32.525],[75.829,32.52],[75.825,32.509],[75.824,32.508],[75.816,32.499],[75.804,32.487],[75.79,32.479],[75.779,32.475],[75.772,32.475],[75.753,32.475],[75.746,32.476],[75.745,32.474],[75.744,32.469],[75.735,32.455],[75.73,32.445],[75.725,32.438],[75.72,32.43],[75.715,32.424],[75.712,32.418],[75.698,32.41],[75.685,32.401],[75.663,32.394],[75.648,32.389],[75.637,32.387],[75.593,32.382],[75.567,32.372],[75.557,32.367],[75.545,32.361],[75.529,32.349],[75.524,32.34],[75.516,32.298],[75.506,32.281],[75.505,32.28],[75.501,32.276],[75.499,32.275],[75.495,32.277],[75.49,32.288],[75.492,32.303],[75.491,32.307],[75.49,32.31],[75.485,32.31],[75.48,32.31],[75.471,32.315],[75.468,32.318],[75.474,32.339],[75.472,32.34],[75.467,32.339],[75.456,32.334],[75.452,32.332],[75.449,32.331],[75.433,32.327],[75.431,32.326],[75.415,32.324],[75.397,32.326],[75.386,32.328],[75.379,32.329],[75.373,32.331],[75.359,32.335],[75.345,32.339],[75.344,32.34],[75.332,32.345],[75.325,32.343],[75.324,32.342],[75.322,32.337],[75.311,32.345],[75.289,32.358],[75.28,32.367],[75.278,32.368],[75.267,32.374],[75.253,32.38],[75.237,32.396],[75.232,32.399],[75.231,32.399],[75.224,32.4],[75.2,32.402],[75.197,32.404],[75.209,32.471],[75.215,32.496],[75.229,32.507],[75.24,32.515],[75.254,32.514],[75.27,32.531],[75.283,32.538],[75.297,32.553],[75.319,32.547],[75.352,32.555],[75.375,32.562],[75.388,32.573],[75.408,32.576],[75.427,32.588],[75.431,32.609],[75.439,32.634],[75.463,32.643],[75.478,32.647],[75.496,32.657],[75.533,32.663],[75.557,32.663],[75.577,32.667],[75.6,32.67],[75.622,32.679],[75.624,32.703],[75.619,32.72],[75.622,32.739],[75.639,32.756],[75.664,32.76],[75.707,32.758],[75.733,32.767],[75.758,32.778],[75.779,32.797],[75.786,32.814],[75.785,32.838],[75.789,32.864],[75.795,32.869],[75.806,32.856],[75.808,32.853],[75.816,32.847],[75.821,32.843],[75.828,32.84],[75.837,32.837],[75.855,32.826],[75.874,32.814],[75.886,32.795],[75.9,32.77],[75.912,32.757],[75.914,32.742],[75.91,32.721],[75.905,32.709],[75.899,32.7],[75.897,32.691],[75.899,32.681],[75.905,32.672],[75.915,32.666],[75.924,32.658],[75.925,32.654],[75.924,32.644],[75.908,32.619],[75.905,32.615]]]}},{"type":"Feature","properties":{"NAME_1":"Jammu and Kashmir","NAME_2":"Kupwara (Muzaffarabad)"},"geometry":{"type":"Polygon","coordinates":[[[73.79,34.427],[73.807,34.442],[73.855,34.473],[73.899,34.496],[73.887,34.515],[73.895,34.547],[73.948,34.573],[73.942,34.592],[73.927,34.646],[73.942,34.677],[73.96,34.697],[73.986,34.704],[74,34.708],[74.013,34.71],[74.034,34.694],[74.042,34.687],[74.049,34.685],[74.06,34.685],[74.081,34.692],[74.087,34.694],[74.093,34.695],[74.097,34.693],[74.117,34.691],[74.133,34.69],[74.142,34.691],[74.149,34.695],[74.175,34.717],[74.203,34.737],[74.211,34.74],[74.226,34.747],[74.227,34.75],[74.239,34.752],[74.27,34.763],[74.28,34.768],[74.287,34.774],[74.303,34.798],[74.307,34.8],[74.315,34.8],[74.331,34.792],[74.332,34.792],[74.341,34.79],[74.346,34.79],[74.368,34.803],[74.376,34.803],[74.474,34.791],[74.477,34.79],[74.485,34.787],[74.507,34.776],[74.515,34.775],[74.538,34.776],[74.544,34.777],[74.561,34.774],[74.565,34.772],[74.577,34.769],[74.58,34.77],[74.612,34.746],[74.618,34.742],[74.632,34.738],[74.639,34.734],[74.648,34.723],[74.612,34.71],[74.586,34.65],[74.552,34.616],[74.503,34.586],[74.503,34.556],[74.526,34.526],[74.529,34.5],[74.522,34.474],[74.514,34.47],[74.458,34.448],[74.458,34.418],[74.443,34.377],[74.402,34.317],[74.334,34.302],[74.269,34.314],[74.261,34.321],[74.253,34.328],[74.218,34.335],[74.166,34.339],[74.136,34.305],[74.095,34.305],[74.053,34.339],[74.008,34.347],[73.967,34.35],[73.913,34.348],[73.899,34.36],[73.889,34.357],[73.879,34.354],[73.842,34.338],[73.807,34.357],[73.773,34.35],[73.763,34.36],[73.764,34.371],[73.777,34.416],[73.79,34.427]]]}},{"type":"Feature","properties":{"NAME_1":"Jammu and Kashmir","NAME_2":"Ladakh (Leh)"},"geometry":{"type":"Polygon","coordinates":[[[78.014,35.264],[78.018,35.25],[78.032,35.22],[78.043,35.202],[78.044,35.201],[78.052,35.191],[78.058,35.185],[78.06,35.183],[78.069,35.176],[78.077,35.173],[78.078,35.172],[78.116,35.145],[78.118,35.142],[78.124,35.135],[78.126,35.129],[78.125,35.126],[78.124,35.122],[78.117,35.112],[78.111,35.107],[78.098,35.098],[78.089,35.096],[78.088,35.096],[78.084,35.091],[78.083,35.082],[78.095,35.057],[78.115,35.015],[78.118,35.007],[78.121,35],[78.13,34.978],[78.133,34.971],[78.167,34.912],[78.174,34.906],[78.175,34.903],[78.185,34.882],[78.188,34.863],[78.207,34.766],[78.21,34.759],[78.219,34.74],[78.221,34.734],[78.232,34.717],[78.232,34.717],[78.248,34.695],[78.266,34.679],[78.273,34.675],[78.274,34.674],[78.284,34.667],[78.3,34.662],[78.307,34.661],[78.317,34.659],[78.324,34.657],[78.325,34.656],[78.387,34.652],[78.396,34.649],[78.398,34.649],[78.399,34.648],[78.405,34.644],[78.407,34.637],[78.407,34.621],[78.409,34.613],[78.418,34.605],[78.425,34.603],[78.435,34.603],[78.443,34.602],[78.459,34.603],[78.482,34.603],[78.512,34.609],[78.537,34.614],[78.558,34.615],[78.569,34.612],[78.582,34.603],[78.611,34.583],[78.621,34.574],[78.638,34.552],[78.644,34.548],[78.652,34.538],[78.66,34.53],[78.681,34.516],[78.686,34.513],[78.696,34.508],[78.717,34.501],[78.73,34.497],[78.736,34.492],[78.738,34.49],[78.749,34.477],[78.75,34.475],[78.753,34.47],[78.754,34.469],[78.763,34.46],[78.788,34.441],[78.799,34.433],[78.825,34.414],[78.837,34.407],[78.838,34.407],[78.876,34.395],[78.892,34.39],[78.915,34.379],[78.923,34.375],[78.927,34.372],[78.929,34.37],[78.94,34.362],[78.961,34.346],[78.969,34.342],[78.977,34.334],[78.981,34.333],[78.989,34.319],[78.99,34.318],[78.994,34.303],[78.993,34.289],[78.985,34.268],[78.975,34.243],[78.956,34.218],[78.942,34.205],[78.935,34.2],[78.91,34.181],[78.894,34.17],[78.889,34.166],[78.879,34.161],[78.871,34.157],[78.859,34.152],[78.815,34.133],[78.774,34.115],[78.771,34.114],[78.764,34.112],[78.761,34.111],[78.759,34.111],[78.729,34.096],[78.724,34.091],[78.713,34.081],[78.706,34.072],[78.706,34.059],[78.712,34.05],[78.732,34.043],[78.76,34.036],[78.76,34.036],[78.761,34.036],[78.766,34.033],[78.768,34.026],[78.77,34.02],[78.768,34.014],[78.764,34.002],[78.743,33.987],[78.728,33.977],[78.716,33.965],[78.714,33.959],[78.716,33.949],[78.717,33.949],[78.717,33.939],[78.715,33.933],[78.712,33.923],[78.717,33.89],[78.726,33.871],[78.742,33.84],[78.761,33.817],[78.762,33.817],[78.775,33.801],[78.781,33.789],[78.784,33.77],[78.775,33.746],[78.775,33.746],[78.762,33.731],[78.758,33.726],[78.737,33.709],[78.737,33.709],[78.732,33.704],[78.709,33.68],[78.708,33.676],[78.707,33.669],[78.709,33.661],[78.711,33.655],[78.727,33.623],[78.73,33.618],[78.742,33.597],[78.743,33.595],[78.758,33.571],[78.763,33.563],[78.771,33.552],[78.784,33.533],[78.791,33.525],[78.804,33.507],[78.819,33.489],[78.821,33.487],[78.823,33.483],[78.87,33.44],[78.872,33.439],[78.876,33.437],[78.895,33.42],[78.921,33.399],[78.941,33.39],[78.955,33.374],[78.973,33.367],[78.98,33.359],[78.989,33.347],[78.999,33.34],[79.004,33.336],[79.02,33.331],[79.034,33.314],[79.037,33.312],[79.048,33.306],[79.067,33.296],[79.071,33.291],[79.073,33.284],[79.069,33.273],[79.066,33.264],[79.067,33.255],[79.067,33.25],[79.071,33.238],[79.075,33.229],[79.093,33.22],[79.113,33.211],[79.128,33.205],[79.141,33.2],[79.157,33.198],[79.165,33.197],[79.18,33.195],[79.183,33.193],[79.185,33.191],[79.206,33.194],[79.212,33.195],[79.315,33.189],[79.356,33.19],[79.377,33.19],[79.394,33.189],[79.399,33.187],[79.402,33.185],[79.41,33.179],[79.417,33.167],[79.418,33.155],[79.415,33.148],[79.413,33.142],[79.411,33.136],[79.399,33.115],[79.397,33.109],[79.395,33.107],[79.393,33.105],[79.391,33.103],[79.374,33.073],[79.373,33.072],[79.372,33.067],[79.368,33.062],[79.366,33.06],[79.355,33.031],[79.353,33.023],[79.352,33.018],[79.35,32.996],[79.351,32.991],[79.351,32.989],[79.351,32.988],[79.352,32.979],[79.362,32.962],[79.365,32.957],[79.381,32.94],[79.383,32.937],[79.387,32.933],[79.391,32.93],[79.399,32.925],[79.419,32.911],[79.432,32.905],[79.435,32.9],[79.442,32.895],[79.446,32.891],[79.449,32.889],[79.454,32.88],[79.455,32.878],[79.457,32.871],[79.465,32.817],[79.471,32.803],[79.478,32.796],[79.484,32.79],[79.496,32.784],[79.515,32.775],[79.527,32.768],[79.533,32.76],[79.541,32.749],[79.544,32.74],[79.545,32.736],[79.547,32.731],[79.555,32.71],[79.561,32.684],[79.563,32.678],[79.564,32.671],[79.558,32.631],[79.554,32.62],[79.55,32.614],[79.545,32.607],[79.524,32.596],[79.522,32.595],[79.514,32.593],[79.509,32.591],[79.489,32.593],[79.485,32.593],[79.478,32.593],[79.464,32.593],[79.448,32.586],[79.436,32.58],[79.43,32.577],[79.404,32.558],[79.362,32.538],[79.361,32.537],[79.36,32.536],[79.353,32.531],[79.347,32.527],[79.32,32.491],[79.314,32.488],[79.312,32.487],[79.305,32.487],[79.297,32.489],[79.27,32.518],[79.261,32.522],[79.258,32.523],[79.258,32.523],[79.253,32.523],[79.248,32.522],[79.235,32.519],[79.233,32.519],[79.223,32.516],[79.221,32.515],[79.214,32.514],[79.207,32.512],[79.203,32.511],[79.183,32.501],[79.165,32.492],[79.149,32.484],[79.129,32.466],[79.127,32.464],[79.122,32.456],[79.12,32.454],[79.12,32.453],[79.118,32.45],[79.12,32.438],[79.122,32.423],[79.121,32.418],[79.121,32.416],[79.112,32.399],[79.109,32.383],[79.104,32.372],[79.096,32.368],[79.092,32.369],[79.077,32.379],[79.068,32.385],[79.064,32.385],[79.06,32.386],[79.049,32.383],[79.049,32.383],[79.047,32.382],[79.025,32.367],[78.994,32.364],[78.983,32.346],[78.977,32.343],[78.974,32.344],[78.971,32.344],[78.924,32.363],[78.919,32.365],[78.915,32.367],[78.914,32.368],[78.902,32.381],[78.9,32.384],[78.888,32.392],[78.886,32.396],[78.875,32.415],[78.867,32.419],[78.857,32.419],[78.836,32.425],[78.821,32.436],[78.82,32.437],[78.818,32.439],[78.816,32.441],[78.798,32.463],[78.796,32.464],[78.781,32.475],[78.777,32.484],[78.775,32.491],[78.776,32.516],[78.776,32.52],[78.773,32.544],[78.768,32.553],[78.767,32.555],[78.766,32.558],[78.764,32.565],[78.764,32.568],[78.765,32.575],[78.776,32.588],[78.78,32.598],[78.779,32.602],[78.776,32.616],[78.771,32.636],[78.768,32.663],[78.765,32.674],[78.765,32.676],[78.764,32.678],[78.76,32.684],[78.746,32.696],[78.742,32.696],[78.736,32.696],[78.717,32.681],[78.664,32.656],[78.654,32.649],[78.652,32.644],[78.632,32.611],[78.626,32.607],[78.603,32.604],[78.6,32.605],[78.595,32.607],[78.587,32.608],[78.559,32.612],[78.55,32.612],[78.55,32.612],[78.545,32.612],[78.545,32.612],[78.539,32.61],[78.537,32.61],[78.537,32.61],[78.531,32.608],[78.526,32.606],[78.509,32.595],[78.503,32.59],[78.496,32.583],[78.486,32.573],[78.48,32.573],[78.473,32.578],[78.472,32.578],[78.472,32.578],[78.47,32.579],[78.462,32.58],[78.453,32.58],[78.443,32.572],[78.438,32.568],[78.412,32.556],[78.411,32.554],[78.404,32.539],[78.405,32.525],[78.411,32.52],[78.412,32.519],[78.417,32.515],[78.413,32.513],[78.411,32.512],[78.409,32.512],[78.409,32.513],[78.405,32.514],[78.405,32.515],[78.401,32.518],[78.4,32.524],[78.399,32.526],[78.398,32.527],[78.394,32.529],[78.382,32.53],[78.377,32.526],[78.356,32.513],[78.31,32.476],[78.306,32.478],[78.279,32.508],[78.295,32.522],[78.299,32.529],[78.297,32.578],[78.302,32.579],[78.318,32.58],[78.332,32.585],[78.341,32.593],[78.377,32.615],[78.389,32.623],[78.376,32.63],[78.371,32.638],[78.363,32.672],[78.364,32.686],[78.368,32.7],[78.378,32.719],[78.375,32.723],[78.371,32.734],[78.371,32.746],[78.373,32.76],[78.371,32.762],[78.364,32.763],[78.345,32.763],[78.314,32.749],[78.288,32.738],[78.295,32.732],[78.298,32.725],[78.299,32.72],[78.296,32.713],[78.285,32.707],[78.273,32.703],[78.259,32.703],[78.237,32.695],[78.233,32.684],[78.225,32.676],[78.213,32.669],[78.202,32.665],[78.195,32.667],[78.184,32.664],[78.18,32.67],[78.17,32.677],[78.158,32.679],[78.153,32.679],[78.144,32.677],[78.136,32.67],[78.131,32.66],[78.127,32.649],[78.121,32.642],[78.116,32.642],[78.107,32.65],[78.099,32.66],[78.093,32.662],[78.089,32.66],[78.079,32.653],[78.073,32.644],[78.067,32.626],[78.065,32.624],[78.059,32.625],[78.044,32.629],[78.034,32.636],[78.033,32.634],[78.032,32.628],[78.034,32.616],[78.037,32.611],[78.041,32.605],[78.042,32.599],[78.036,32.592],[78.027,32.589],[78.017,32.587],[77.987,32.588],[77.983,32.587],[77.977,32.592],[77.975,32.596],[77.968,32.608],[77.962,32.614],[77.959,32.621],[77.954,32.626],[77.955,32.635],[77.953,32.64],[77.946,32.643],[77.939,32.648],[77.932,32.656],[77.927,32.663],[77.926,32.667],[77.92,32.68],[77.911,32.688],[77.903,32.693],[77.902,32.698],[77.906,32.704],[77.906,32.712],[77.908,32.716],[77.909,32.721],[77.912,32.726],[77.918,32.731],[77.916,32.734],[77.912,32.737],[77.914,32.742],[77.914,32.745],[77.917,32.752],[77.918,32.757],[77.917,32.763],[77.915,32.766],[77.912,32.767],[77.909,32.772],[77.903,32.773],[77.899,32.775],[77.891,32.775],[77.887,32.775],[77.881,32.775],[77.876,32.78],[77.872,32.786],[77.867,32.79],[77.869,32.8],[77.865,32.807],[77.864,32.811],[77.861,32.816],[77.855,32.821],[77.853,32.825],[77.848,32.828],[77.831,32.835],[77.825,32.84],[77.819,32.839],[77.814,32.836],[77.808,32.836],[77.799,32.846],[77.792,32.849],[77.788,32.85],[77.781,32.854],[77.776,32.855],[77.768,32.858],[77.761,32.865],[77.766,32.88],[77.773,32.891],[77.787,32.892],[77.793,32.898],[77.79,32.905],[77.782,32.91],[77.778,32.916],[77.76,32.927],[77.751,32.936],[77.748,32.939],[77.747,32.941],[77.747,32.942],[77.745,32.946],[77.739,32.947],[77.736,32.948],[77.734,32.95],[77.727,32.958],[77.723,32.964],[77.712,32.972],[77.708,32.967],[77.704,32.966],[77.7,32.969],[77.697,32.973],[77.695,32.978],[77.691,32.979],[77.679,32.978],[77.678,32.981],[77.671,32.986],[77.665,32.986],[77.663,32.976],[77.66,32.969],[77.656,32.966],[77.653,32.959],[77.65,32.958],[77.643,32.958],[77.638,32.956],[77.623,32.945],[77.617,32.944],[77.613,32.941],[77.611,32.942],[77.606,32.942],[77.593,32.942],[77.586,32.94],[77.584,32.944],[77.582,32.939],[77.581,32.935],[77.58,32.932],[77.57,32.922],[77.554,32.913],[77.549,32.913],[77.545,32.912],[77.535,32.902],[77.527,32.892],[77.523,32.89],[77.508,32.928],[77.484,33.014],[77.446,33.086],[77.378,33.192],[77.364,33.274],[77.412,33.351],[77.47,33.361],[77.522,33.433],[77.561,33.529],[77.508,33.63],[77.431,33.722],[77.311,33.779],[77.253,33.784],[77.142,33.847],[77.036,33.881],[76.969,33.885],[76.892,33.914],[76.825,33.958],[76.752,34.078],[76.685,34.136],[76.651,34.155],[76.589,34.174],[76.531,34.198],[76.473,34.237],[76.444,34.232],[76.42,34.256],[76.367,34.347],[76.372,34.42],[76.367,34.511],[76.343,34.559],[76.339,34.631],[76.329,34.733],[76.34,34.734],[76.351,34.735],[76.386,34.736],[76.41,34.752],[76.428,34.762],[76.437,34.764],[76.469,34.792],[76.472,34.793],[76.474,34.794],[76.477,34.794],[76.49,34.792],[76.514,34.784],[76.545,34.766],[76.562,34.758],[76.571,34.758],[76.58,34.756],[76.618,34.756],[76.652,34.757],[76.672,34.757],[76.682,34.76],[76.687,34.763],[76.697,34.779],[76.706,34.801],[76.727,34.821],[76.738,34.831],[76.743,34.84],[76.745,34.845],[76.743,34.865],[76.739,34.902],[76.743,34.918],[76.749,34.927],[76.762,34.933],[76.764,34.933],[76.799,34.936],[76.804,34.934],[76.811,34.935],[76.826,34.942],[76.848,34.958],[76.853,34.964],[76.863,34.971],[76.87,34.972],[76.884,34.97],[76.898,34.964],[76.901,34.963],[76.908,34.962],[76.95,34.941],[76.97,34.936],[76.989,34.935],[76.997,34.939],[77.01,34.956],[77.011,34.967],[77.011,34.973],[77.011,35],[77.01,35.016],[77.011,35.028],[77.014,35.035],[77.018,35.038],[77.027,35.041],[77.037,35.032],[77.068,35.024],[77.081,35.026],[77.11,35.039],[77.157,35.055],[77.176,35.067],[77.195,35.079],[77.281,35.138],[77.295,35.146],[77.301,35.148],[77.379,35.198],[77.384,35.199],[77.419,35.22],[77.443,35.234],[77.485,35.267],[77.54,35.298],[77.585,35.324],[77.651,35.367],[77.661,35.375],[77.736,35.434],[77.76,35.451],[77.775,35.46],[77.815,35.485],[77.819,35.493],[77.824,35.501],[77.841,35.501],[77.843,35.501],[77.847,35.501],[77.85,35.492],[77.851,35.489],[77.863,35.459],[77.869,35.451],[77.879,35.436],[77.885,35.432],[77.889,35.429],[77.9,35.428],[77.903,35.428],[77.91,35.429],[77.92,35.434],[77.921,35.435],[77.928,35.441],[77.944,35.463],[77.945,35.464],[77.951,35.474],[77.962,35.48],[77.967,35.481],[77.991,35.487],[78.01,35.489],[78.02,35.49],[78.045,35.491],[78.064,35.492],[78.065,35.492],[78.079,35.492],[78.082,35.492],[78.088,35.491],[78.094,35.489],[78.104,35.484],[78.107,35.48],[78.11,35.477],[78.111,35.473],[78.108,35.465],[78.104,35.462],[78.097,35.456],[78.08,35.448],[78.072,35.447],[78.07,35.445],[78.069,35.443],[78.032,35.423],[78.03,35.42],[78.03,35.42],[78.028,35.419],[78.025,35.417],[78.021,35.417],[78.021,35.416],[78.019,35.415],[77.997,35.394],[77.99,35.379],[77.99,35.364],[77.992,35.349],[77.994,35.345],[78.002,35.298],[78.002,35.295],[78.006,35.29],[78.014,35.264]]]}},{"type":"Feature","properties":{"NAME_1":"Jammu and Kashmir","NAME_2":"Pulwama"},"geometry":{"type":"Polygon","coordinates":[[[75.243,34.048],[75.237,34.034],[75.22,33.991],[75.215,33.939],[75.22,33.896],[75.209,33.85],[75.215,33.816],[75.128,33.758],[75.057,33.741],[74.979,33.681],[74.936,33.663],[74.876,33.64],[74.81,33.646],[74.752,33.681],[74.724,33.686],[74.735,33.715],[74.768,33.739],[74.788,33.758],[74.815,33.778],[74.861,33.81],[74.881,33.819],[74.907,33.822],[74.93,33.826],[74.954,33.837],[74.969,33.853],[74.98,33.88],[74.984,33.901],[74.983,33.915],[74.986,33.932],[74.993,33.96],[75.008,33.976],[75.004,33.991],[74.996,34.011],[75,34.03],[74.997,34.042],[75.025,34.045],[75.057,34.054],[75.068,34.048],[75.114,34.04],[75.151,34.037],[75.174,34.037],[75.209,34.045],[75.243,34.048]]]}},{"type":"Feature","properties":{"NAME_1":"Jammu and Kashmir","NAME_2":"Punch"},"geometry":{"type":"Polygon","coordinates":[[[73.89,34.042],[73.883,34.05],[73.884,34.061],[73.901,34.064],[73.913,34.077],[73.923,34.097],[73.948,34.105],[73.981,34.103],[74.014,34.104],[74.029,34.104],[74.055,34.099],[74.076,34.089],[74.123,34.095],[74.176,34.081],[74.205,34.078],[74.239,34.046],[74.265,34.021],[74.281,34.005],[74.325,34.003],[74.365,34.003],[74.371,34.006],[74.389,34.005],[74.41,34.002],[74.443,34.001],[74.465,34.001],[74.489,34.014],[74.51,34.026],[74.517,34.02],[74.53,34.028],[74.542,34.006],[74.557,33.988],[74.574,33.98],[74.591,33.971],[74.603,33.957],[74.611,33.932],[74.615,33.898],[74.619,33.865],[74.626,33.842],[74.64,33.819],[74.657,33.797],[74.667,33.784],[74.676,33.762],[74.69,33.734],[74.705,33.722],[74.719,33.712],[74.724,33.686],[74.716,33.696],[74.711,33.688],[74.702,33.667],[74.697,33.649],[74.694,33.632],[74.695,33.615],[74.695,33.588],[74.703,33.564],[74.711,33.545],[74.716,33.525],[74.728,33.504],[74.722,33.495],[74.707,33.494],[74.695,33.498],[74.684,33.507],[74.666,33.515],[74.643,33.528],[74.628,33.549],[74.607,33.562],[74.583,33.568],[74.565,33.572],[74.55,33.579],[74.531,33.579],[74.504,33.576],[74.477,33.573],[74.452,33.566],[74.437,33.551],[74.425,33.535],[74.411,33.516],[74.405,33.499],[74.4,33.477],[74.396,33.463],[74.379,33.435],[74.364,33.411],[74.346,33.381],[74.334,33.398],[74.316,33.411],[74.307,33.426],[74.287,33.433],[74.278,33.443],[74.268,33.464],[74.257,33.487],[74.241,33.509],[74.24,33.511],[74.215,33.504],[74.165,33.496],[74.158,33.502],[74.143,33.518],[74.123,33.543],[74.097,33.569],[74.096,33.57],[74.088,33.573],[74.074,33.569],[74.074,33.569],[74.054,33.565],[74.045,33.566],[74.028,33.575],[74.015,33.598],[74.011,33.605],[74,33.624],[74,33.625],[73.976,33.694],[73.956,33.72],[73.966,33.74],[74,33.753],[74.024,33.772],[74.028,33.776],[74.038,33.795],[74.041,33.799],[74.049,33.809],[74.053,33.811],[74.066,33.82],[74.09,33.826],[74.13,33.828],[74.143,33.83],[74.17,33.84],[74.192,33.851],[74.208,33.859],[74.22,33.867],[74.246,33.895],[74.261,33.925],[74.264,33.943],[74.263,33.955],[74.263,33.974],[74.249,34.014],[74.247,34.016],[74.237,34.026],[74.226,34.033],[74.215,34.039],[74.196,34.04],[74.181,34.04],[74.161,34.039],[74.149,34.043],[74.132,34.053],[74.127,34.054],[74.124,34.055],[74.115,34.054],[74.1,34.046],[74.096,34.04],[74.087,34.038],[74.061,34.035],[74.057,34.031],[74.044,34.03],[74.039,34.029],[74.006,34.022],[74,34.03],[73.909,34.033],[73.898,34.033],[73.89,34.042]]]}},{"type":"Feature","properties":{"NAME_1":"Jammu and Kashmir","NAME_2":"Rajauri"},"geometry":{"type":"Polygon","coordinates":[[[74.753,33.508],[74.762,33.473],[74.775,33.45],[74.798,33.42],[74.805,33.399],[74.794,33.377],[74.78,33.355],[74.778,33.33],[74.78,33.309],[74.787,33.293],[74.794,33.279],[74.797,33.265],[74.805,33.247],[74.805,33.236],[74.791,33.235],[74.764,33.238],[74.746,33.246],[74.723,33.243],[74.704,33.235],[74.685,33.214],[74.685,33.202],[74.689,33.192],[74.702,33.189],[74.723,33.189],[74.738,33.176],[74.738,33.154],[74.732,33.134],[74.726,33.107],[74.708,33.067],[74.699,33.031],[74.676,33.001],[74.651,33.006],[74.631,32.984],[74.615,32.997],[74.596,32.982],[74.58,32.969],[74.585,32.965],[74.565,32.959],[74.533,32.959],[74.498,32.978],[74.473,32.997],[74.449,33],[74.417,32.974],[74.399,32.946],[74.374,32.946],[74.335,32.955],[74.346,32.966],[74.353,32.983],[74.353,32.99],[74.352,33.013],[74.35,33.016],[74.338,33.026],[74.326,33.029],[74.308,33.031],[74.283,33.043],[74.255,33.049],[74.242,33.047],[74.22,33.045],[74.216,33.043],[74.205,33.043],[74.199,33.047],[74.191,33.077],[74.176,33.107],[74.157,33.126],[74.149,33.134],[74.145,33.135],[74.112,33.164],[74.1,33.173],[74.083,33.181],[74.056,33.187],[74.034,33.188],[74.026,33.189],[74.018,33.193],[74.014,33.198],[74.011,33.219],[74.011,33.238],[74.013,33.25],[74.014,33.251],[74.02,33.259],[74.024,33.262],[74.036,33.265],[74.048,33.264],[74.065,33.26],[74.068,33.26],[74.079,33.26],[74.088,33.263],[74.091,33.264],[74.103,33.271],[74.116,33.281],[74.118,33.286],[74.167,33.344],[74.169,33.346],[74.171,33.347],[74.185,33.384],[74.184,33.391],[74.18,33.402],[74.179,33.426],[74.182,33.43],[74.183,33.442],[74.187,33.456],[74.186,33.466],[74.185,33.468],[74.178,33.482],[74.165,33.496],[74.215,33.504],[74.24,33.511],[74.241,33.509],[74.257,33.487],[74.268,33.464],[74.278,33.443],[74.287,33.433],[74.307,33.426],[74.316,33.411],[74.334,33.398],[74.346,33.381],[74.364,33.411],[74.379,33.435],[74.396,33.463],[74.4,33.477],[74.405,33.499],[74.411,33.516],[74.425,33.535],[74.437,33.551],[74.452,33.566],[74.477,33.573],[74.504,33.576],[74.531,33.579],[74.55,33.579],[74.565,33.572],[74.583,33.568],[74.607,33.562],[74.628,33.549],[74.643,33.528],[74.666,33.515],[74.684,33.507],[74.695,33.498],[74.707,33.494],[74.722,33.495],[74.728,33.504],[74.739,33.51],[74.753,33.508]]]}},{"type":"Feature","properties":{"NAME_1":"Jammu and Kashmir","NAME_2":"Srinagar"},"geometry":{"type":"Polygon","coordinates":[[[75.478,34.374],[75.439,34.347],[75.416,34.324],[75.404,34.281],[75.384,34.255],[75.306,34.221],[75.283,34.198],[75.252,34.149],[75.26,34.134],[75.258,34.088],[75.243,34.048],[75.209,34.045],[75.174,34.037],[75.151,34.037],[75.114,34.04],[75.068,34.048],[75.057,34.054],[75.025,34.045],[74.997,34.042],[74.996,34.045],[74.976,34.06],[74.957,34.077],[74.933,34.102],[74.896,34.143],[74.886,34.153],[74.872,34.167],[74.852,34.178],[74.835,34.2],[74.814,34.219],[74.805,34.237],[74.793,34.254],[74.787,34.27],[74.791,34.287],[74.799,34.306],[74.795,34.321],[74.796,34.34],[74.807,34.35],[74.837,34.353],[74.863,34.348],[74.89,34.346],[74.914,34.335],[74.933,34.334],[74.96,34.352],[75,34.369],[75.025,34.374],[75.042,34.386],[75.043,34.413],[75.049,34.44],[75.053,34.458],[75.074,34.466],[75.106,34.464],[75.151,34.446],[75.177,34.421],[75.2,34.407],[75.22,34.392],[75.242,34.379],[75.264,34.368],[75.282,34.362],[75.305,34.358],[75.314,34.378],[75.329,34.39],[75.353,34.395],[75.383,34.388],[75.4,34.378],[75.425,34.372],[75.448,34.372],[75.465,34.375],[75.473,34.38],[75.478,34.374]]]}},{"type":"Feature","properties":{"NAME_1":"Jammu and Kashmir","NAME_2":"Udhampur"},"geometry":{"type":"Polygon","coordinates":[[[74.914,33.515],[74.941,33.498],[74.97,33.48],[74.99,33.479],[75.016,33.486],[75.04,33.487],[75.069,33.488],[75.094,33.489],[75.112,33.484],[75.131,33.473],[75.157,33.467],[75.185,33.465],[75.174,33.458],[75.171,33.44],[75.171,33.415],[75.171,33.396],[75.181,33.38],[75.202,33.366],[75.232,33.348],[75.247,33.34],[75.272,33.312],[75.283,33.289],[75.28,33.253],[75.27,33.23],[75.256,33.211],[75.232,33.175],[75.226,33.15],[75.232,33.132],[75.233,33.13],[75.292,33.125],[75.348,33.103],[75.412,33.077],[75.459,33.057],[75.512,33.031],[75.553,33.001],[75.588,32.97],[75.636,32.948],[75.666,32.938],[75.699,32.929],[75.779,32.905],[75.798,32.902],[75.794,32.897],[75.79,32.894],[75.787,32.893],[75.789,32.885],[75.79,32.881],[75.795,32.87],[75.795,32.869],[75.789,32.864],[75.785,32.838],[75.786,32.814],[75.779,32.797],[75.758,32.778],[75.733,32.767],[75.707,32.758],[75.664,32.76],[75.639,32.756],[75.622,32.739],[75.619,32.72],[75.624,32.703],[75.622,32.679],[75.6,32.67],[75.577,32.667],[75.557,32.663],[75.533,32.663],[75.496,32.657],[75.478,32.647],[75.463,32.643],[75.439,32.634],[75.431,32.609],[75.426,32.617],[75.421,32.624],[75.42,32.627],[75.407,32.627],[75.378,32.635],[75.364,32.634],[75.341,32.642],[75.318,32.66],[75.289,32.668],[75.254,32.687],[75.239,32.702],[75.236,32.721],[75.248,32.747],[75.255,32.772],[75.251,32.794],[75.241,32.817],[75.226,32.829],[75.21,32.839],[75.187,32.854],[75.169,32.866],[75.158,32.871],[75.144,32.874],[75.134,32.877],[75.118,32.876],[75.101,32.879],[75.083,32.883],[75.069,32.88],[75.058,32.89],[75.044,32.907],[75.033,32.931],[75.016,32.93],[75.001,32.915],[74.986,32.913],[74.971,32.917],[74.958,32.931],[74.957,32.955],[74.965,32.973],[74.963,32.993],[74.961,33.021],[74.951,33.038],[74.94,33.053],[74.921,33.053],[74.903,33.051],[74.89,33.047],[74.872,33.043],[74.855,33.043],[74.817,33.042],[74.801,33.037],[74.798,33.025],[74.797,33.008],[74.794,32.99],[74.785,32.976],[74.775,32.97],[74.756,32.976],[74.736,32.984],[74.709,32.993],[74.677,33],[74.676,33.001],[74.699,33.031],[74.708,33.067],[74.726,33.107],[74.732,33.134],[74.738,33.154],[74.738,33.176],[74.723,33.189],[74.702,33.189],[74.689,33.192],[74.685,33.202],[74.685,33.214],[74.704,33.235],[74.723,33.243],[74.746,33.246],[74.764,33.238],[74.791,33.235],[74.805,33.236],[74.805,33.247],[74.797,33.265],[74.794,33.279],[74.787,33.293],[74.78,33.309],[74.778,33.33],[74.78,33.355],[74.794,33.377],[74.805,33.399],[74.798,33.42],[74.775,33.45],[74.762,33.473],[74.753,33.508],[74.772,33.505],[74.796,33.504],[74.815,33.512],[74.84,33.525],[74.877,33.522],[74.914,33.515]]]}}]}